{
  "type": "FeatureCollection",
  "name": "Peta_Sastra_Lisan_Jawa_Tengah_2026",
  "crs": {
    "type": "name",
    "properties": {
      "name": "urn:ogc:def:crs:OGC:1.3:CRS84"
    }
  },
  "features": [
    {
      "type": "Feature",
      "id": "SLJT-001-BLR",
      "geometry": {
        "type": "Point",
        "coordinates": [
          111.3789,
          -6.9944
        ]
      },
      "properties": {
        "id": "SLJT-001-BLR",
        "nama": "Kentrung Blora",
        "ring_kategori": "Ring 1 - Terverifikasi",
        "ring_level": 1,
        "kabupaten": "Kabupaten Blora",
        "karesidenan": "Karesidenan Pati (Muria Raya)",
        "zona_ekologi": "Karst Kendeng & Hutan Jati Rimba",
        "maestro": "Yanuri Sutrisno",
        "formula_teks": "Penutur tunggal memadukan 3 teknik: Kandha (narasi prosa), Janturan (sajak dilagukan), Caturan (dialog tokoh)",
        "ringkasan_ilmiah": "Kentrung Blora adalah seni tutur lisan berirama bernuansa Islam-Jawa pesisir dengan tabuhan terbang besar dan ketunthung. Penutur membawakan carita kepahlawanan dan religius dengan variasi kandha, janturan, dan caturan secara soliter.",
        "sumber_ilmiah": "Balai Bahasa Provinsi Jawa Tengah (2026); Transkripsi Fonemik 367 Segmen",
        "youtube_url": "https://youtu.be/5XteEv2MU_g"
      }
    },
    {
      "type": "Feature",
      "id": "SLJT-002-BMS",
      "geometry": {
        "type": "Point",
        "coordinates": [
          109.1867,
          -7.3889
        ]
      },
      "properties": {
        "id": "SLJT-002-BMS",
        "nama": "Maca Babad Pasir Luhur",
        "ring_kategori": "Ring 1 - Terverifikasi",
        "ring_level": 1,
        "kabupaten": "Kabupaten Banyumas",
        "karesidenan": "Karesidenan Banyumas",
        "zona_ekologi": "Lembah DAS Serayu & Lereng Gunung Slamet",
        "maestro": "Santoso Puji Irawan",
        "formula_teks": "Pelantunan tembang macapat (sekar macapat) dari teks babad tertua Banyumas",
        "ringkasan_ilmiah": "Maca Babad Pasir Luhur merupakan tradisi pelantunan tembang macapat (sekar macapat) dari naskah babad tertua di lembah Serayu lereng Gunung Cokol. Pertunjukan memadukan tradisi sastra tulis babad dengan sastra tutur jemblungan akapela.",
        "sumber_ilmiah": "Balai Bahasa Provinsi Jawa Tengah (2026); Laporan Revitalisasi Maca Babad Pasir Luhur",
        "youtube_url": "https://youtu.be/Ixm0NVVzniM"
      }
    },
    {
      "type": "Feature",
      "id": "SLJT-003-WSB",
      "geometry": {
        "type": "Point",
        "coordinates": [
          109.8433,
          -7.4206
        ]
      },
      "properties": {
        "id": "SLJT-003-WSB",
        "nama": "Wayang Othok Obrol",
        "ring_kategori": "Ring 1 - Terverifikasi",
        "ring_level": 1,
        "kabupaten": "Kabupaten Wonosobo",
        "karesidenan": "Karesidenan Kedu",
        "zona_ekologi": "Dataran Tinggi Serayu Hulu & Pegunungan Dieng",
        "maestro": "Ki Makim Kartosudarmo",
        "formula_teks": "Teater tutur pakeliran, narasi dalang, dialog antartokoh, dan suluk",
        "ringkasan_ilmiah": "Wayang Othok Obrol adalah teater tutur wayang purwa komunal yang sangat langka di Selokromo Leksono Wonosobo. Menggunakan wayang kulit tua peninggalan leluhur, dalang menuturkan pakeliran, suluk, dan dialog tanpa gamelan lengkap, melainkan iringan kendang dan senggakan mulut.",
        "sumber_ilmiah": "Balai Bahasa Provinsi Jawa Tengah (2026); Laporan Revitalisasi Wayang Othok Obrol",
        "youtube_url": "https://youtube.com/live/Q_JAmcKSFB0"
      }
    },
    {
      "type": "Feature",
      "id": "SLJT-R2-001",
      "geometry": {
        "type": "Point",
        "coordinates": [
          110.165805,
          -7.173863
        ]
      },
      "properties": {
        "id": "SLJT-R2-001",
        "nama": "Bedhaya Ela-Ela (Tari)",
        "ring_kategori": "Ring 2 - Terverifikasi Teks",
        "ring_level": 2,
        "kabupaten": "Jawa Tengah (Pusat Surakarta)",
        "karesidenan": "Karesidenan Surakarta",
        "zona_ekologi": "Pusat Keraton & Tari Sakral",
        "maestro": "",
        "formula_teks": "sindhenan/tembang pelengkap tari",
        "ringkasan_ilmiah": "Artikel mengkaji struktur koreografi dan menyebut teks vokal/sindhenan Bedhaya Ela-Ela.",
        "sumber_ilmiah": "Irawati (2018). Bentuk dan Makna Tari Bedhaya Ela-Ela. Mudra 33(2)",
        "youtube_url": ""
      }
    },
    {
      "type": "Feature",
      "id": "SLJT-R2-002",
      "geometry": {
        "type": "Point",
        "coordinates": [
          110.136423,
          -7.10514
        ]
      },
      "properties": {
        "id": "SLJT-R2-002",
        "nama": "Bedhaya Ketawang",
        "ring_kategori": "Ring 2 - Terverifikasi Teks",
        "ring_level": 2,
        "kabupaten": "Jawa Tengah (Pusat Surakarta)",
        "karesidenan": "Karesidenan Surakarta",
        "zona_ekologi": "Pusat Keraton & Tari Sakral",
        "maestro": "",
        "formula_teks": "sindhenan; teks tembang kemanak",
        "ringkasan_ilmiah": "Artikel menganalisis teks vokal sindhenan dan tembang kemanak yang mengiringi tarian sakral Bedhaya Ketawang Karaton Surakarta Hadiningrat.",
        "sumber_ilmiah": "Sri Hastuti (2007). Profil Penari Bedhaya Ketawang di Kraton Kasunanan Surakarta. Panggung 17(4)",
        "youtube_url": ""
      }
    },
    {
      "type": "Feature",
      "id": "SLJT-R2-003",
      "geometry": {
        "type": "Point",
        "coordinates": [
          109.235693,
          -7.466825
        ]
      },
      "properties": {
        "id": "SLJT-R2-003",
        "nama": "Begalan Banyumas",
        "ring_kategori": "Ring 2 - Terverifikasi Teks",
        "ring_level": 2,
        "kabupaten": "Kabupaten Banyumas",
        "karesidenan": "Karesidenan Banyumas",
        "zona_ekologi": "Lembah DAS Serayu & Agraris",
        "maestro": "",
        "formula_teks": "dialog tuturan; tembang macapat; parikan",
        "ringkasan_ilmiah": "Tradisi lisan upacara pernikahan adat Banyumas berupa atraksi tutur dialogis simbolik peralatan dapur (brenong kepang) diiringi parikan dan macapat.",
        "sumber_ilmiah": "Kusmayati (2020). Simbolisme dan Fungsi Tuturan Begalan dalam Pernikahan Adat Banyumas. Lingua 17(1)",
        "youtube_url": ""
      }
    },
    {
      "type": "Feature",
      "id": "SLJT-R2-004",
      "geometry": {
        "type": "Point",
        "coordinates": [
          109.379858,
          -7.340857
        ]
      },
      "properties": {
        "id": "SLJT-R2-004",
        "nama": "Braen",
        "ring_kategori": "Ring 2 - Terverifikasi Teks",
        "ring_level": 2,
        "kabupaten": "Kabupaten Purbalingga",
        "karesidenan": "Karesidenan Banyumas",
        "zona_ekologi": "Lembah DAS Klawing & Kaki Slamet",
        "maestro": "",
        "formula_teks": "syi'ir Jawa-Arab; lantunan tembang puji-pujian",
        "ringkasan_ilmiah": "Seni vokal religius lisan bernuansa Islam tradisional yang dilantunkan tanpa instrumen musik petik/gesek, berisi puji-pujian dan kisah para nabi.",
        "sumber_ilmiah": "Haryanto (2021). Kesenian Braen di Kabupaten Purbalingga: Bentuk Penyajian dan Teks Puji-Pujian. Gelar: Jurnal Seni Budaya 19(1)",
        "youtube_url": ""
      }
    },
    {
      "type": "Feature",
      "id": "SLJT-R2-005",
      "geometry": {
        "type": "Point",
        "coordinates": [
          109.885386,
          -7.345962
        ]
      },
      "properties": {
        "id": "SLJT-R2-005",
        "nama": "Bundengan",
        "ring_kategori": "Ring 2 - Terverifikasi Teks",
        "ring_level": 2,
        "kabupaten": "Kabupaten Wonosobo",
        "karesidenan": "Karesidenan Kedu",
        "zona_ekologi": "Dataran Tinggi Vulkanik Wonosobo",
        "maestro": "",
        "formula_teks": "tembang kowangan; tiruan gamelan vokal",
        "ringkasan_ilmiah": "Alat musik petik bambu penutup kepala penggembala itik (kowangan) yang dimainkan sambil melantunkan tembang-tembang tiruan gendhing klenengan.",
        "sumber_ilmiah": "Mulyono (2020). Bundengan Wonosobo: Eksplorasi Bunyi dan Pelestarian Tradisi Tutur Penggembala. Resital 21(3)",
        "youtube_url": ""
      }
    },
    {
      "type": "Feature",
      "id": "SLJT-R2-006",
      "geometry": {
        "type": "Point",
        "coordinates": [
          109.256406,
          -7.498556
        ]
      },
      "properties": {
        "id": "SLJT-R2-006",
        "nama": "Calung Banyumas dan Jawa Barat",
        "ring_kategori": "Ring 2 - Terverifikasi Teks",
        "ring_level": 2,
        "kabupaten": "Kabupaten Banyumas",
        "karesidenan": "Karesidenan Banyumas",
        "zona_ekologi": "Lembah DAS Serayu & Lereng Slamet",
        "maestro": "",
        "formula_teks": "suluk calung; parikan banyumasan; tembang",
        "ringkasan_ilmiah": "Musik ansambel bambu wulung khas Banyumas yang mengiringi pelantunan lagu, parikan, dan vokal dialek Banyumasan lugas.",
        "sumber_ilmiah": "Sugeng (2019). Karakteristik Vokal dan Parikan dalam Musik Calung Banyumasan. Harmonia 19(2)",
        "youtube_url": ""
      }
    },
    {
      "type": "Feature",
      "id": "SLJT-R2-007",
      "geometry": {
        "type": "Point",
        "coordinates": [
          109.002089,
          -7.531748
        ]
      },
      "properties": {
        "id": "SLJT-R2-007",
        "nama": "Cowongan Cilacap",
        "ring_kategori": "Ring 2 - Terverifikasi Teks",
        "ring_level": 2,
        "kabupaten": "Kabupaten Cilacap",
        "karesidenan": "Karesidenan Banyumas",
        "zona_ekologi": "Pesisir Kidul & Karst Selatan",
        "maestro": "",
        "formula_teks": "mantra pemanggil bidadari; kidung jaladriya",
        "ringkasan_ilmiah": "Ritus sastra lisan permohonan hujan menggunakan media siwur (gayung tempurung kelapa) yang diiringi mantra dan kidung magis pemanggil roh Dewi Sri/bidadari.",
        "sumber_ilmiah": "Astuti (2019). Struktur Mantra dan Nilai Kearifan Lokal Cowongan di Nusawungu Cilacap. Seloka 8(2)",
        "youtube_url": ""
      }
    },
    {
      "type": "Feature",
      "id": "SLJT-R2-008",
      "geometry": {
        "type": "Point",
        "coordinates": [
          109.991229,
          -7.723375
        ]
      },
      "properties": {
        "id": "SLJT-R2-008",
        "nama": "Dolalak",
        "ring_kategori": "Ring 2 - Terverifikasi Teks",
        "ring_level": 2,
        "kabupaten": "Kabupaten Purworejo",
        "karesidenan": "Karesidenan Kedu",
        "zona_ekologi": "Lembah DAS Bogowonto & Bagelen",
        "maestro": "",
        "formula_teks": "syair pantun melayu-jawa; tembang dolalak",
        "ringkasan_ilmiah": "Seni tari vokal tradisional khas Purworejo yang membawakan ratusan bait pantun nasihat, percintaan, dan puji-pujian dengan gaya vokal meliuk khas.",
        "sumber_ilmiah": "Suwito (2020). Struktur Teks Pantun dan Nilai Kultural Kesenian Dolalak Purworejo. Widyaparwa 48(2)",
        "youtube_url": ""
      }
    },
    {
      "type": "Feature",
      "id": "SLJT-R2-009",
      "geometry": {
        "type": "Point",
        "coordinates": [
          109.277512,
          -7.468631
        ]
      },
      "properties": {
        "id": "SLJT-R2-009",
        "nama": "Ebeg Banyumas",
        "ring_kategori": "Ring 2 - Terverifikasi Teks",
        "ring_level": 2,
        "kabupaten": "Kabupaten Banyumas",
        "karesidenan": "Karesidenan Banyumas",
        "zona_ekologi": "Lembah DAS Serayu & Lereng Slamet",
        "maestro": "",
        "formula_teks": "mantra indang; tembang eling-eling; cakepan",
        "ringkasan_ilmiah": "Kesenian kuda kepang tradisional Banyumasan yang menyertakan pembacaan mantra pemanggil indang dan tembang-tembang Jawa berdialek Banyumasan.",
        "sumber_ilmiah": "Rohman (2020). Analisis Mantra Pemanggilan Indang pada Pertunjukan Kesenian Ebeg di Banyumas. Jurnal Pendidikan Bahasa dan Sastra Jawa 9(2)",
        "youtube_url": ""
      }
    },
    {
      "type": "Feature",
      "id": "SLJT-R2-010",
      "geometry": {
        "type": "Point",
        "coordinates": [
          110.406126,
          -7.17408
        ]
      },
      "properties": {
        "id": "SLJT-R2-010",
        "nama": "Gambang Semarang",
        "ring_kategori": "Ring 2 - Terverifikasi Teks",
        "ring_level": 2,
        "kabupaten": "Kabupaten Semarang & Kota Semarang",
        "karesidenan": "Karesidenan Semarang",
        "zona_ekologi": "Pesisir Pantura & Akulturasi Urban",
        "maestro": "",
        "formula_teks": "pantun bertutur empat baris; dialog humoris",
        "ringkasan_ilmiah": "Kesenian musik tradisional akulturatif Tionghoa-Jawa yang menyajikan pantun-pantun sindiran sosial, humor, dan kerukunan multikultural Semarangan.",
        "sumber_ilmiah": "Hendarto (2019). Nilai Filosofis dan Struktur Pantun dalam Musik Gambang Semarang. Greget 18(2)",
        "youtube_url": ""
      }
    },
    {
      "type": "Feature",
      "id": "SLJT-R2-011",
      "geometry": {
        "type": "Point",
        "coordinates": [
          110.135353,
          -7.164274
        ]
      },
      "properties": {
        "id": "SLJT-R2-011",
        "nama": "Gatotkaca Gandrung",
        "ring_kategori": "Ring 2 - Terverifikasi Teks",
        "ring_level": 2,
        "kabupaten": "Jawa Tengah (Pusat Surakarta)",
        "karesidenan": "Karesidenan Surakarta",
        "zona_ekologi": "Pusat Keraton & Wayang Kulit",
        "maestro": "",
        "formula_teks": "suluk wayang; pocapan; caturan gandrung",
        "ringkasan_ilmiah": "Fragmen lakon pakeliran wayang kulit purwa gaya Surakarta yang memuat dialog puitis (caturan) asmara ksatria Gatotkaca kepada Dewi Pregiwa.",
        "sumber_ilmiah": "Nartosabdo & Soetarno (2018). Analisis Estetika Suluk dan Pocapan Lakon Gatotkaca Gandrung. Keteg 18(2)",
        "youtube_url": ""
      }
    },
    {
      "type": "Feature",
      "id": "SLJT-R2-012",
      "geometry": {
        "type": "Point",
        "coordinates": [
          110.846928,
          -7.55765
        ]
      },
      "properties": {
        "id": "SLJT-R2-012",
        "nama": "Geguritan Surakarta",
        "ring_kategori": "Ring 2 - Terverifikasi Teks",
        "ring_level": 2,
        "kabupaten": "Kota Surakarta",
        "karesidenan": "Karesidenan Surakarta",
        "zona_ekologi": "Pusat Kebudayaan Mataram Surakarta",
        "maestro": "",
        "formula_teks": "puisi bebas bahasa jawa; wirama bertutur",
        "ringkasan_ilmiah": "Tradisi pembacaan puisi modern berbahasa Jawa (geguritan) yang berkembang subur di lingkungan sastrawan Solo dengan gaya baca ekspresif dan musikalitas kata.",
        "sumber_ilmiah": "Dhanu Priyo Prabowo (2019). Perkembangan Bentuk dan Estetika Geguritan Surakarta Periode Pasca-Kemerdekaan. Widyaparwa 47(1)",
        "youtube_url": ""
      }
    },
    {
      "type": "Feature",
      "id": "SLJT-R2-013",
      "geometry": {
        "type": "Point",
        "coordinates": [
          110.610633,
          -6.887193
        ]
      },
      "properties": {
        "id": "SLJT-R2-013",
        "nama": "Grebeg Besar Demak",
        "ring_kategori": "Ring 2 - Terverifikasi Teks",
        "ring_level": 2,
        "kabupaten": "Kabupaten Demak",
        "karesidenan": "Karesidenan Semarang",
        "zona_ekologi": "Pesisir Pantura Kasultanan Demak",
        "maestro": "",
        "formula_teks": "doa jamasan pusaka; ujaran wilujengan",
        "ringkasan_ilmiah": "Ritus tahunan Iduladha di Masjid Agung Demak dan Makam Sunan Kalijaga Kadilangu yang memuat rapalan ujaran sakral jamasan pusaka Kyai Cerubuk dan Kyai Kotang Ontokusumo.",
        "sumber_ilmiah": "Muhaimin (2020). Dimensi Simbolik dan Tuturan Doa Tradisi Grebeg Besar Demak. Jurnal Sejarah dan Budaya 14(2)",
        "youtube_url": ""
      }
    },
    {
      "type": "Feature",
      "id": "SLJT-R2-014",
      "geometry": {
        "type": "Point",
        "coordinates": [
          110.165766,
          -7.187032
        ]
      },
      "properties": {
        "id": "SLJT-R2-014",
        "nama": "Jamjaneng",
        "ring_kategori": "Ring 2 - Terverifikasi Teks",
        "ring_level": 2,
        "kabupaten": "Jawa Tengah (Kebumen & Cilacap)",
        "karesidenan": "Karesidenan Kedu",
        "zona_ekologi": "Lembah DAS Luk Ulo & Pesisir Kidul",
        "maestro": "",
        "formula_teks": "syi'ir nabi; tembang berzanji; bait jawi",
        "ringkasan_ilmiah": "Kesenian vokal salawat komunal diiringi instrumen terbang/rebana berlaras slendro-pelog, membawakan teks kasidah berbahasa Jawa-Arab dengan gaya cengkok pesisir.",
        "sumber_ilmiah": "Masruroh (2019). Jamjaneng di Kebumen: Analisis Tekstual Syair Shalawat dan Makna Kultural. Thaqafiyyat 20(1)",
        "youtube_url": ""
      }
    },
    {
      "type": "Feature",
      "id": "SLJT-R2-015",
      "geometry": {
        "type": "Point",
        "coordinates": [
          110.142071,
          -7.135141
        ]
      },
      "properties": {
        "id": "SLJT-R2-015",
        "nama": "Langendriyan",
        "ring_kategori": "Ring 2 - Terverifikasi Teks",
        "ring_level": 2,
        "kabupaten": "Jawa Tengah (Pusat Surakarta)",
        "karesidenan": "Karesidenan Surakarta",
        "zona_ekologi": "Pusat Keraton & Puro Mangkunegaran",
        "maestro": "",
        "formula_teks": "macapat berdialog lisan; antawecana nembang",
        "ringkasan_ilmiah": "Teater tari opera Jawa klasik Mangkunegaran di mana para pemeran (khususnya perempuan) menari jongkok sambil berdialog langsung menggunakan tembang sekar macapat.",
        "sumber_ilmiah": "RM Soedarsono (2017). Langendriyan Mandraswara: Drama Tari Jawa Gaya Mangkunegaran dan Struktur Sastra Vokalnya. Jurnal Seni Pertunjukan 8(1)",
        "youtube_url": ""
      }
    },
    {
      "type": "Feature",
      "id": "SLJT-R2-016",
      "geometry": {
        "type": "Point",
        "coordinates": [
          109.225583,
          -7.470948
        ]
      },
      "properties": {
        "id": "SLJT-R2-016",
        "nama": "Lengger Banyumas",
        "ring_kategori": "Ring 2 - Terverifikasi Teks",
        "ring_level": 2,
        "kabupaten": "Kabupaten Banyumas",
        "karesidenan": "Karesidenan Banyumas",
        "zona_ekologi": "Lembah DAS Serayu & Lereng Slamet",
        "maestro": "",
        "formula_teks": "parikan sampakan; sindhenan banyumasan",
        "ringkasan_ilmiah": "Seni pertunjukan tradisi kerakyatan vokal-tari khas lembah Serayu dengan lantunan sindhenan parikan spontan yang penuh pesan moral dan humor cablaka.",
        "sumber_ilmiah": "Sunaryo (2020). Estetika Sastra Lisan Parikan pada Seni Pertunjukan Lengger Banyumas. Gelar 18(2)",
        "youtube_url": ""
      }
    },
    {
      "type": "Feature",
      "id": "SLJT-R2-017",
      "geometry": {
        "type": "Point",
        "coordinates": [
          110.455219,
          -6.996744
        ]
      },
      "properties": {
        "id": "SLJT-R2-017",
        "nama": "Macapat Semarangan",
        "ring_kategori": "Ring 2 - Terverifikasi Teks",
        "ring_level": 2,
        "kabupaten": "Kota Semarang",
        "karesidenan": "Karesidenan Semarang",
        "zona_ekologi": "Pesisir Pantura & Dialek Semarangan",
        "maestro": "",
        "formula_teks": "pupuh sekar macapat; cengkok pesisiran",
        "ringkasan_ilmiah": "Tradisi pelantunan tembang macapat dengan cengkok khas Semarangan yang lebih terbuka, dinamis, serta mengadopsi diksi pesisiran kota pelabuhan.",
        "sumber_ilmiah": "Suroto (2019). Ciri Musikal dan Gaya Tembang Macapat Semarangan. Resital 20(1)",
        "youtube_url": ""
      }
    },
    {
      "type": "Feature",
      "id": "SLJT-R2-018",
      "geometry": {
        "type": "Point",
        "coordinates": [
          110.108126,
          -7.117988
        ]
      },
      "properties": {
        "id": "SLJT-R2-018",
        "nama": "Santiswara Larasmadya",
        "ring_kategori": "Ring 2 - Terverifikasi Teks",
        "ring_level": 2,
        "kabupaten": "Jawa Tengah (Pusat Surakarta)",
        "karesidenan": "Karesidenan Surakarta",
        "zona_ekologi": "Pusat Keraton & Pesantren Tradisi",
        "maestro": "",
        "formula_teks": "sekar macapat; terbang santiswara; doa lisan",
        "ringkasan_ilmiah": "Seni ensambel rebana terbang dan kemanak yang mengiringi lantunan tembang-tembang macapat puji-pujian sufistik ciptaan Sri Susuhunan Paku Buwono IV dan PB V.",
        "sumber_ilmiah": "Waridi (2018). Santiswara Larasmadya: Perpaduan Islam dan Budaya Keraton Jawa dalam Teks Musikal. Keteg 18(1)",
        "youtube_url": ""
      }
    },
    {
      "type": "Feature",
      "id": "SLJT-R2-019",
      "geometry": {
        "type": "Point",
        "coordinates": [
          109.62557,
          -7.069989
        ]
      },
      "properties": {
        "id": "SLJT-R2-019",
        "nama": "Sintren Kabupaten Pekalongan",
        "ring_kategori": "Ring 2 - Terverifikasi Teks",
        "ring_level": 2,
        "kabupaten": "Kabupaten Pekalongan",
        "karesidenan": "Karesidenan Pekalongan",
        "zona_ekologi": "Pesisir Pantura & Kaki Pegunungan",
        "maestro": "",
        "formula_teks": "syair kembang kencur; mantra pawang sintren",
        "ringkasan_ilmiah": "Pertunjukan seni mistis tradisi pesisir Pekalongan di mana pawang melantunkan mantra magis dan syair puitis untuk memasukkan roh bidadari Dewi Rantamsari ke dalam tubuh penari di kurungan.",
        "sumber_ilmiah": "Kusniati (2020). Struktur Mantra Pawang dan Teks Syair Pertunjukan Sintren di Kabupaten Pekalongan. Litera 19(2)",
        "youtube_url": ""
      }
    },
    {
      "type": "Feature",
      "id": "SLJT-R2-020",
      "geometry": {
        "type": "Point",
        "coordinates": [
          110.841323,
          -7.550942
        ]
      },
      "properties": {
        "id": "SLJT-R2-020",
        "nama": "Tari Gambiranom Surakarta",
        "ring_kategori": "Ring 2 - Terverifikasi Teks",
        "ring_level": 2,
        "kabupaten": "Kota Surakarta",
        "karesidenan": "Karesidenan Surakarta",
        "zona_ekologi": "Pusat Kebudayaan Mataram Surakarta",
        "maestro": "",
        "formula_teks": "ada-ada slendro sanga; ketawang kinanthi sandhung",
        "ringkasan_ilmiah": "Tari klasik gaya Surakarta susunan S. Ngaliman yang memadukan gerak tari ksatria kasmaran dengan pelantunan teks tembang verbal secara komplementer.",
        "sumber_ilmiah": "Maryono (2019). Implikatur Presentasi Komplementarisme Verbal dan Nonverbal Tari Gambiranom Susunan S. Ngaliman. Mudra 34(1)",
        "youtube_url": ""
      }
    },
    {
      "type": "Feature",
      "id": "SLJT-R2-021",
      "geometry": {
        "type": "Point",
        "coordinates": [
          110.105002,
          -7.154372
        ]
      },
      "properties": {
        "id": "SLJT-R2-021",
        "nama": "Tari Soreng",
        "ring_kategori": "Ring 2 - Terverifikasi Teks",
        "ring_level": 2,
        "kabupaten": "Jawa Tengah (Kab. Magelang)",
        "karesidenan": "Karesidenan Kedu",
        "zona_ekologi": "Lereng Merapi-Merbabu",
        "maestro": "",
        "formula_teks": "macapat spontan; tembang dolanan; syair prajuritan",
        "ringkasan_ilmiah": "Tari keprajuritan rakyat lereng Merbabu (kisah Aryo Penangsang) yang diiringi lantunan tembang dolanan dan tembang macapat penuh semangat patriotik.",
        "sumber_ilmiah": "Dewi Purnama Sari (2023). Bentuk Pertunjukan dan Teks Syair Tari Soreng di Lereng Gunung Merbabu. Greget 22(1)",
        "youtube_url": ""
      }
    },
    {
      "type": "Feature",
      "id": "SLJT-R2-022",
      "geometry": {
        "type": "Point",
        "coordinates": [
          109.952024,
          -7.391014
        ]
      },
      "properties": {
        "id": "SLJT-R2-022",
        "nama": "Tari Topeng Lengger Wonosobo",
        "ring_kategori": "Ring 2 - Terverifikasi Teks",
        "ring_level": 2,
        "kabupaten": "Kabupaten Wonosobo",
        "karesidenan": "Karesidenan Kedu",
        "zona_ekologi": "Dataran Tinggi Vulkanik Wonosobo",
        "maestro": "",
        "formula_teks": "parikan wonosaban; sindhenan topeng",
        "ringkasan_ilmiah": "Seni pertunjukan rakyat berlakon Panji di mana sindhen melantunkan parikan sastra lisan berbahasa Jawa dialek Kedu Wonosobo yang penuh sindiran moral dan humor.",
        "sumber_ilmiah": "Penulis Kolektif (2024). Cengkok Sindhenan pada Parikan Karawitan Tari Topeng Lengger Wonosobo. IDEA: Jurnal Desain dan Seni Pertunjukan 12(1)",
        "youtube_url": ""
      }
    },
    {
      "type": "Feature",
      "id": "SLJT-R2-023",
      "geometry": {
        "type": "Point",
        "coordinates": [
          110.821804,
          -7.555338
        ]
      },
      "properties": {
        "id": "SLJT-R2-023",
        "nama": "Tedhak Siten Surakarta",
        "ring_kategori": "Ring 2 - Terverifikasi Teks",
        "ring_level": 2,
        "kabupaten": "Kota Surakarta",
        "karesidenan": "Karesidenan Surakarta",
        "zona_ekologi": "Pusat Kebudayaan Mataram Surakarta",
        "maestro": "",
        "formula_teks": "doa tuturan pini sepuh; ujaran upacara turun tanah",
        "ringkasan_ilmiah": "Ritus daur hidup tradisi Jawa saat anak pertama kali menapak tanah yang dipimpin sesepuh adat dengan merapalkan doa-doa simbolik harapan keselamatan dan kemuliaan hidup.",
        "sumber_ilmiah": "Rudiansyah & Siti Yumna Annisa (2024). Tedhak Siten: Cultural Values and Spoken Prayers During the Fast Pacing World. LINGTERSA 5(1)",
        "youtube_url": ""
      }
    },
    {
      "type": "Feature",
      "id": "SLJT-R2-024",
      "geometry": {
        "type": "Point",
        "coordinates": [
          110.812276,
          -7.591585
        ]
      },
      "properties": {
        "id": "SLJT-R2-024",
        "nama": "Tingalan Jumenengan Dalem Karaton Surakarta",
        "ring_kategori": "Ring 2 - Terverifikasi Teks",
        "ring_level": 2,
        "kabupaten": "Kota Surakarta",
        "karesidenan": "Karesidenan Surakarta",
        "zona_ekologi": "Pusat Karaton Kasunanan Surakarta",
        "maestro": "",
        "formula_teks": "doa wilujengan; tembang kemanak bedhaya; suluk",
        "ringkasan_ilmiah": "Upacara adat penobatan/peringatan tahta Sri Susuhunan Paku Buwono yang memuat pembacaan doa wilujengan berbahasa Jawa-Arab dan lantunan tembang suci sakral keraton.",
        "sumber_ilmiah": "Sri Hastuti (2007). Profil Penari Bedhaya Ketawang di Kraton Kasunanan Surakarta. Panggung 17(4)",
        "youtube_url": ""
      }
    },
    {
      "type": "Feature",
      "id": "SLJT-R2-025",
      "geometry": {
        "type": "Point",
        "coordinates": [
          110.858727,
          -7.559646
        ]
      },
      "properties": {
        "id": "SLJT-R2-025",
        "nama": "Tingalan Jumenengan Dalem Puro Mangkunegaran",
        "ring_kategori": "Ring 2 - Terverifikasi Teks",
        "ring_level": 2,
        "kabupaten": "Kota Surakarta",
        "karesidenan": "Karesidenan Surakarta",
        "zona_ekologi": "Pusat Puro Mangkunegaran",
        "maestro": "",
        "formula_teks": "Sekar Macapat Durma; cakepan Bedhaya Anglir Mendhung",
        "ringkasan_ilmiah": "Upacara peringatan tahta Kanjeng Gusti Pangeran Adipati Ario Mangkunagoro yang menampilkan pementasan pusaka Bedhaya Anglir Mendhung dengan syair sekar Durma.",
        "sumber_ilmiah": "Hayu Adi Darmarastri dkk. (2024). Tari Bedhaya Anglir Mendhung di Mangkunegaran: Teks Sastra dan Legitimasi Penguasa. Mozaik 15(2)",
        "youtube_url": ""
      }
    },
    {
      "type": "Feature",
      "id": "SLJT-R2-026",
      "geometry": {
        "type": "Point",
        "coordinates": [
          110.563957,
          -7.50578
        ]
      },
      "properties": {
        "id": "SLJT-R2-026",
        "nama": "Tungguk Tembakau Boyolali",
        "ring_kategori": "Ring 2 - Terverifikasi Teks",
        "ring_level": 2,
        "kabupaten": "Kabupaten Boyolali",
        "karesidenan": "Karesidenan Surakarta",
        "zona_ekologi": "Lereng Merapi-Merbabu & Kawasan Tembakau",
        "maestro": "",
        "formula_teks": "doa pini sepuh merapi; pidato ujaran jawa; lagu tradisional",
        "ringkasan_ilmiah": "Ritus upacara petik pertama panen tembakau warga lereng Merbabu yang diawali dengan pembacaan ujaran doa permohonan berkah tani dan nyanyian tembang tradisional.",
        "sumber_ilmiah": "Ani Rakhmawati dkk. (2024). Tobacco harvesting ceremony on Merapi mountainsides: Critical discourse analysis of oral prayers. Cogent Arts & Humanities 11(1)",
        "youtube_url": ""
      }
    },
    {
      "type": "Feature",
      "id": "SLJT-R2-027",
      "geometry": {
        "type": "Point",
        "coordinates": [
          110.610725,
          -7.718886
        ]
      },
      "properties": {
        "id": "SLJT-R2-027",
        "nama": "Upacara Adat Apeman Yaqowiyu",
        "ring_kategori": "Ring 2 - Terverifikasi Teks",
        "ring_level": 2,
        "kabupaten": "Kabupaten Klaten",
        "karesidenan": "Karesidenan Surakarta",
        "zona_ekologi": "Dataran Prambanan & Jatinom",
        "maestro": "",
        "formula_teks": "lafal doa yaqowiyu; ujaran berkah ki ageng gribig",
        "ringkasan_ilmiah": "Ritus keagamaan dan budaya di Jatinom saat bulan Safar dengan pembagian apem yang diawali lantunan doa lisan 'Yaa Qowiyyu' untuk memohon kekuatan spiritual dan keselamatan bangsa.",
        "sumber_ilmiah": "Syamsuddin (2020). Dimensi Living Islam dalam Upacara Sebaran Apem Yaqowiyu Klaten. Jurnal SMaRT 6(1)",
        "youtube_url": ""
      }
    },
    {
      "type": "Feature",
      "id": "SLJT-R2-028",
      "geometry": {
        "type": "Point",
        "coordinates": [
          110.833736,
          -7.546548
        ]
      },
      "properties": {
        "id": "SLJT-R2-028",
        "nama": "Upacara Adat Mahesa Lawung",
        "ring_kategori": "Ring 2 - Terverifikasi Teks",
        "ring_level": 2,
        "kabupaten": "Kota Surakarta",
        "karesidenan": "Karesidenan Surakarta",
        "zona_ekologi": "Hutan Krendhawahana & Karaton Surakarta",
        "maestro": "",
        "formula_teks": "doa wilujengan nagari; mantra sang hyang bathari kalayuwati",
        "ringkasan_ilmiah": "Ritus sesaji kepala kerbau ke Hutan Krendhawahana oleh abdi dalem Karaton Surakarta dengan pembacaan doa wilujengan tolak bala agar kerajaan dan rakyat terhindar dari mara bahaya.",
        "sumber_ilmiah": "Sudardi (2018). Mitos Hutan Krendhawahana dan Mantra Wilujengan Mahesa Lawung Karaton Kasunanan Surakarta. Patrawidya 19(3)",
        "youtube_url": ""
      }
    },
    {
      "type": "Feature",
      "id": "SLJT-R2-029",
      "geometry": {
        "type": "Point",
        "coordinates": [
          110.923605,
          -7.62102
        ]
      },
      "properties": {
        "id": "SLJT-R2-029",
        "nama": "Wahyu Kliyu",
        "ring_kategori": "Ring 2 - Terverifikasi Teks",
        "ring_level": 2,
        "kabupaten": "Kabupaten Karanganyar",
        "karesidenan": "Karesidenan Surakarta",
        "zona_ekologi": "Lereng Barat Gunung Lawu (Jatipuro)",
        "maestro": "",
        "formula_teks": "lafal wirid wahyu kliyu; kidung tolak pagebluk",
        "ringkasan_ilmiah": "Tradisi pelemparan apem pada malam bulan Sura di Dusun Kendal Kidul yang diiringi lantunan doa tolak bala 'Yaa Hayyu Yaa Qoyyum' dan kidung permohonan keselamatan desa.",
        "sumber_ilmiah": "Widodo (2021). Tradisi Wahyu Kliyu di Jatipuro Karanganyar: Analisis Hermeneutika Teks Doa. Jurnal Sutasoma 9(2)",
        "youtube_url": ""
      }
    },
    {
      "type": "Feature",
      "id": "SLJT-R2-030",
      "geometry": {
        "type": "Point",
        "coordinates": [
          110.183755,
          -7.161838
        ]
      },
      "properties": {
        "id": "SLJT-R2-030",
        "nama": "Wayang Kulit Purwa Jawa Tengah",
        "ring_kategori": "Ring 2 - Terverifikasi Teks",
        "ring_level": 2,
        "kabupaten": "Jawa Tengah (Surakarta, Banyumas, Kedu, Pati)",
        "karesidenan": "Lintas Karesidenan",
        "zona_ekologi": "Lembah DAS & Episentrum Wayang",
        "maestro": "",
        "formula_teks": "antawecana; suluk dalang; janturan; ada-ada",
        "ringkasan_ilmiah": "Seni teater tutur boneka kulit purwa paling komprehensif yang memuat ribuan baris teks sastra lisan berupa suluk kawi, janturan deskripsi nagara, dan dialog falsafah hidup para tokoh wayang.",
        "sumber_ilmiah": "Bambang Murtiyoso (2018). Antawecana: Karakterisasi Tuturan Vokal dalam Pedalangan Wayang Kulit Purwa Gaya Surakarta. Mudra 33(3)",
        "youtube_url": ""
      }
    },
    {
      "type": "Feature",
      "id": "SLJT-R2-031",
      "geometry": {
        "type": "Point",
        "coordinates": [
          110.146929,
          -7.262315
        ]
      },
      "properties": {
        "id": "SLJT-R2-031",
        "nama": "Wayang Kedu Temanggungan",
        "ring_kategori": "Ring 2 - Terverifikasi Teks",
        "ring_level": 2,
        "kabupaten": "Kabupaten Temanggung",
        "karesidenan": "Karesidenan Kedu",
        "zona_ekologi": "Lereng Gunung Sindoro-Sumbing",
        "maestro": "",
        "formula_teks": "janturan kedu; suluk berdialek kedu",
        "ringkasan_ilmiah": "Gaya pedalangan wayang kulit unik khas lereng Sindoro-Sumbing dengan janturan naratif berdialek Kedu kuno dan struktur lakon yang berfokus pada ketahanan agraris petani tembakau.",
        "sumber_ilmiah": "Sarwono (2020). Karakteristik Lakon dan Bahasa Pedalangan Wayang Kedu Temanggungan. Resital 21(1)",
        "youtube_url": ""
      }
    },
    {
      "type": "Feature",
      "id": "SLJT-R2-032",
      "geometry": {
        "type": "Point",
        "coordinates": [
          109.91052,
          -7.389602
        ]
      },
      "properties": {
        "id": "SLJT-R2-032",
        "nama": "Wayang Othok Obrol (Varian Naskah)",
        "ring_kategori": "Ring 2 - Terverifikasi Teks",
        "ring_level": 2,
        "kabupaten": "Kabupaten Wonosobo",
        "karesidenan": "Karesidenan Kedu",
        "zona_ekologi": "Dataran Tinggi Vulkanik Wonosobo",
        "maestro": "",
        "formula_teks": "suluk slendro manyura; tembang glenukan; caturan",
        "ringkasan_ilmiah": "Ragam teks pedalangan wayang kulit kuna khas Dusun Selokromo Leksono yang dipentaskan semalam suntuk tanpa instrumen gamelan lengkap (hanya kendang, terompet, dan kentrung mini).",
        "sumber_ilmiah": "Budi Santoso (2021). Kajian Filologis dan Pertunjukan Wayang Othok Obrol Wonosobo. Jurnal Lakon 18(2)",
        "youtube_url": ""
      }
    },
    {
      "type": "Feature",
      "id": "SLJT-R2-033",
      "geometry": {
        "type": "Point",
        "coordinates": [
          110.633106,
          -7.683804
        ]
      },
      "properties": {
        "id": "SLJT-R2-033",
        "nama": "Wayang Topeng Dalang Klaten",
        "ring_kategori": "Ring 2 - Terverifikasi Teks",
        "ring_level": 2,
        "kabupaten": "Kabupaten Klaten",
        "karesidenan": "Karesidenan Surakarta",
        "zona_ekologi": "Dataran Prambanan & Pedan",
        "maestro": "",
        "formula_teks": "pocapan dalang; dialog lakon panji; tembang",
        "ringkasan_ilmiah": "Pertunjukan wayang orang bertopeng di mana dalang menarasikan pocapan dan mengarahkan jalannya cerita roman Panji Semirang dengan dialog dan tembang khas Klaten.",
        "sumber_ilmiah": "Haryono (2019). Struktur Dramaturgi dan Teks Pocapan Wayang Topeng Dalang Klaten. Jurnal Seni Tari 8(2)",
        "youtube_url": ""
      }
    },
    {
      "type": "Feature",
      "id": "SLJT-R2-034",
      "geometry": {
        "type": "Point",
        "coordinates": [
          109.199805,
          -7.450906
        ]
      },
      "properties": {
        "id": "SLJT-R2-034",
        "nama": "Wayang Topeng Kedung Panjang",
        "ring_kategori": "Ring 2 - Terverifikasi Teks",
        "ring_level": 2,
        "kabupaten": "Kabupaten Banyumas",
        "karesidenan": "Karesidenan Banyumas",
        "zona_ekologi": "Lembah DAS Serayu & Banyumas Barat",
        "maestro": "",
        "formula_teks": "kandha dalang; tembang macapat topeng; parikan",
        "ringkasan_ilmiah": "Varian teater tradisi topeng bertutur lakon Panji di Kedungpanjang Banyumas dengan gaya tutur kandha dan iringan vokal macapat khas pedesaan Banyumas.",
        "sumber_ilmiah": "Subarkah (2020). Nilai Simbolik dan Tuturan Tembang pada Wayang Topeng Kedung Panjang Banyumas. Seloka 9(3)",
        "youtube_url": ""
      }
    },
    {
      "type": "Feature",
      "id": "SLJT-R2-035",
      "geometry": {
        "type": "Point",
        "coordinates": [
          110.435173,
          -7.226097
        ]
      },
      "properties": {
        "id": "SLJT-R2-035",
        "nama": "Legenda Baru Klinthing & Merti Rawa Pening",
        "ring_kategori": "Ring 2 - Terverifikasi Teks",
        "ring_level": 2,
        "kabupaten": "Kabupaten Semarang",
        "karesidenan": "Karesidenan Semarang",
        "zona_ekologi": "Ekologi Waduk, Rawa & Perairan Darat",
        "maestro": "",
        "formula_teks": "mitos penciptaan baru klinthing; formula pantangan nelayan; mantra larung sesaji",
        "ringkasan_ilmiah": "Mitos asal-usul cekungan rawa dan pantangan bersikap serakah, disertai mantra doa pelemparan kepala kambing saat sedekah rawa tahunan yang terbukti memuat formula verbal sakral.",
        "sumber_ilmiah": "Rizal & Saddhono (2023). Nilai Edukasi dan Mitologi Baru Klinthing pada Tradisi Merti Rawa Pening. Widyaparwa BRIN 51(2), DOI: 10.26499/wdprw.v51i2.789",
        "youtube_url": ""
      }
    },
    {
      "type": "Feature",
      "id": "SLJT-R2-036",
      "geometry": {
        "type": "Point",
        "coordinates": [
          110.42509,
          -7.19
        ]
      },
      "properties": {
        "id": "SLJT-R2-036",
        "nama": "Tradisi Kungkum & Mitos Sendang Senjoyo",
        "ring_kategori": "Ring 2 - Terverifikasi Teks",
        "ring_level": 2,
        "kabupaten": "Kabupaten Semarang & Kota Salatiga",
        "karesidenan": "Karesidenan Semarang",
        "zona_ekologi": "Ekologi Sendang & Mata Air Sakral",
        "maestro": "",
        "formula_teks": "mantra tolak bala; doa lisan tirta amerta; narasi mitis joko tingkir",
        "ringkasan_ilmiah": "Tradisi berendam spiritual (kungkum) pada malam 1 Sura dan padusan, disertai rapalan doa keselamatan dan cerita lisan Joko Tingkir pertapa mata air yang dipelihara juru kunci.",
        "sumber_ilmiah": "Ciptowiyono (2021). Makna Simbolik dan Tradisi Kungkum Sendang Senjoyo di Desa Tegalwaton. Patrawidya: Jurnal Penelitian Sejarah dan Budaya 22(3)",
        "youtube_url": ""
      }
    },
    {
      "type": "Feature",
      "id": "SLJT-R2-037",
      "geometry": {
        "type": "Point",
        "coordinates": [
          111.0111,
          -6.780724
        ]
      },
      "properties": {
        "id": "SLJT-R2-037",
        "nama": "Legenda & Ritus Khaul Sendang Sani",
        "ring_kategori": "Ring 2 - Terverifikasi Teks",
        "ring_level": 2,
        "kabupaten": "Kabupaten Pati",
        "karesidenan": "Karesidenan Pati (Muria Raya)",
        "zona_ekologi": "Ekologi Sendang & Mata Air Sakral",
        "maestro": "",
        "formula_teks": "legenda sunan kalijaga & djoyokusumo; ujaran khaul; tabu air",
        "ringkasan_ilmiah": "Cerita lisan kemunculan sumber air akibat sabda Sunan Kalijaga dan pantangan adat mengambil air tanpa kesucian diri, dilantunkan rutin dalam tradisi khaul sendang tiap bulan Rejeb.",
        "sumber_ilmiah": "Handayani (2019). Fungsi Mitos Sendang Sani bagi Pelestarian Lingkungan di Pati. Jurnal Sabda 14(1)",
        "youtube_url": ""
      }
    },
    {
      "type": "Feature",
      "id": "SLJT-R2-038",
      "geometry": {
        "type": "Point",
        "coordinates": [
          110.960189,
          -7.111225
        ]
      },
      "properties": {
        "id": "SLJT-R2-038",
        "nama": "Jamasan & Mitos Sendang Coyo",
        "ring_kategori": "Ring 2 - Terverifikasi Teks",
        "ring_level": 2,
        "kabupaten": "Kabupaten Grobogan",
        "karesidenan": "Karesidenan Pati (Muria Raya)",
        "zona_ekologi": "Ekologi Sendang & Mata Air Sakral",
        "maestro": "",
        "formula_teks": "kidung tolak pagebluk; mantra jamasan sendang; mitos tancap tongkat",
        "ringkasan_ilmiah": "Ritual pensucian mata air purba di tengah hutan kapur Pulokulon yang disertai lantunan kidung tolak bala dan narasi lisan tancap tongkat Sunan Kalijaga demi menyelamatkan warga dari kekeringan.",
        "sumber_ilmiah": "Wahyudi (2022). Nilai Filosofis dan Ekologis Jamasan Sendang Coyo Pulokulon. Jurnal Sutasoma 10(1)",
        "youtube_url": ""
      }
    },
    {
      "type": "Feature",
      "id": "SLJT-R2-039",
      "geometry": {
        "type": "Point",
        "coordinates": [
          108.933039,
          -7.005831
        ]
      },
      "properties": {
        "id": "SLJT-R2-039",
        "nama": "Sedekah Waduk & Mitos Ular Malahayu",
        "ring_kategori": "Ring 2 - Terverifikasi Teks",
        "ring_level": 2,
        "kabupaten": "Kabupaten Brebes",
        "karesidenan": "Karesidenan Pekalongan",
        "zona_ekologi": "Ekologi Waduk, Rawa & Perairan Darat",
        "maestro": "",
        "formula_teks": "mitos siluman ular bunting; doa sedekah waduk 1 sura; mantra irigasi",
        "ringkasan_ilmiah": "Upacara sedekah bumi perairan waduk Malahayu oleh gabungan kelompok tani dan nelayan tawar dengan rapalan doa keselamatan air dan mitos lisan ular sanca berkepala manusia pelindung bendungan.",
        "sumber_ilmiah": "Kurniawan (2020). Tradisi Sedekah Waduk Malahayu: Mitos dan Solidaritas Sosial Petani Brebes. Dialektika: Jurnal Bahasa, Sastra, dan Budaya 10(2)",
        "youtube_url": ""
      }
    },
    {
      "type": "Feature",
      "id": "SLJT-R2-040",
      "geometry": {
        "type": "Point",
        "coordinates": [
          109.1593,
          -7.049633
        ]
      },
      "properties": {
        "id": "SLJT-R2-040",
        "nama": "Sedekah Bumi & Mitos Naga Cacaban",
        "ring_kategori": "Ring 2 - Terverifikasi Teks",
        "ring_level": 2,
        "kabupaten": "Kabupaten Tegal",
        "karesidenan": "Karesidenan Pekalongan",
        "zona_ekologi": "Ekologi Waduk, Rawa & Perairan Darat",
        "maestro": "",
        "formula_teks": "mitos naga siluman cacaban; mantra pelindung air perahu; doa nelayan",
        "ringkasan_ilmiah": "Tuturan sastra lisan seputar pembendungan Kali Cacaban 1952 dan pantangan melaut bagi nelayan tawar, disertai mantra doa tolak mara bahaya air yang dirapalkan saat sedekah bumi tahunan.",
        "sumber_ilmiah": "Fauziyah (2022). Mitos dan Tradisi Sedekah Bumi Waduk Cacaban Kabupaten Tegal. Jurnal Sastra Indonesia 11(3)",
        "youtube_url": ""
      }
    },
    {
      "type": "Feature",
      "id": "SLJT-R2-041",
      "geometry": {
        "type": "Point",
        "coordinates": [
          110.444041,
          -7.185535
        ]
      },
      "properties": {
        "id": "SLJT-R2-041",
        "nama": "Syi'iran & Wirid Sendang Nyatnyono",
        "ring_kategori": "Ring 2 - Terverifikasi Teks",
        "ring_level": 2,
        "kabupaten": "Kabupaten Semarang",
        "karesidenan": "Karesidenan Semarang",
        "zona_ekologi": "Ekologi Sendang & Mata Air Sakral",
        "maestro": "",
        "formula_teks": "syi'ir jawa penolak bala; wirid kalimah toyyibah; doa tirta husada",
        "ringkasan_ilmiah": "Tradisi penziarahan makam Hasan Munadi dan Sendang Kalimah Toyyibah yang menyertakan pelantunan syi'ir Jawa dan wirid bertutur lisan komunal untuk memohon kesembuhan dan berkah air.",
        "sumber_ilmiah": "Hidayat (2020). Living Qur'an dan Tradisi Ngalap Berkah di Sendang Nyatnyono Ungaran. Jurnal Living Islam 3(1)",
        "youtube_url": ""
      }
    },
    {
      "type": "Feature",
      "id": "SLJT-R2-042",
      "geometry": {
        "type": "Point",
        "coordinates": [
          110.376176,
          -7.006528
        ]
      },
      "properties": {
        "id": "SLJT-R2-042",
        "nama": "Nyadran & Tembang Sendang Gedhe Kandri",
        "ring_kategori": "Ring 2 - Terverifikasi Teks",
        "ring_level": 2,
        "kabupaten": "Kota Semarang",
        "karesidenan": "Karesidenan Semarang",
        "zona_ekologi": "Ekologi Sendang & Mata Air Sakral",
        "maestro": "",
        "formula_teks": "tembang kinanthi pelestari tirta; ujaran sesepuh sendang; mitos goa kreo",
        "ringkasan_ilmiah": "Ritus bersih desa dan konservasi mata air Kandri di Gunungpati dengan pelantunan tembang macapat Kinanthi secara lisan saat mengarak sesaji menuju sendang untuk memohon kelestarian air.",
        "sumber_ilmiah": "Prasetyo & Utomo (2023). Struktur Pertunjukan dan Makna Simbolik Nyadran Kali Sendang Gedhe Kandri. Jurnal Seni Tari 12(1)",
        "youtube_url": ""
      }
    },
    {
      "type": "Feature",
      "id": "SLJT-R2-043",
      "geometry": {
        "type": "Point",
        "coordinates": [
          110.968405,
          -7.611961
        ]
      },
      "properties": {
        "id": "SLJT-R2-043",
        "nama": "Kidung Tirta & Mitos Sendang Widodaren",
        "ring_kategori": "Ring 2 - Terverifikasi Teks",
        "ring_level": 2,
        "kabupaten": "Kabupaten Karanganyar",
        "karesidenan": "Karesidenan Surakarta",
        "zona_ekologi": "Ekologi Sendang & Mata Air Sakral",
        "maestro": "",
        "formula_teks": "kidung ladrang sukodok; doa sesuci bidadari; narasi petilasan brawijaya v",
        "ringkasan_ilmiah": "Tradisi pengambilan air suci di lereng Gunung Lawu yang diiringi lantunan tembang kidung sakral Ladrang Sukodok dan narasi lisan tempat pertapaan raja Majapahit terakhir.",
        "sumber_ilmiah": "Suryani (2022). Eksplorasi Gerak dan Vokal Ritus Sendang Widodaren Lereng Lawu. Greget: Jurnal Pengkajian Tari 21(2)",
        "youtube_url": ""
      }
    },
    {
      "type": "Feature",
      "id": "SLJT-R2-044",
      "geometry": {
        "type": "Point",
        "coordinates": [
          109.906436,
          -7.341487
        ]
      },
      "properties": {
        "id": "SLJT-R2-044",
        "nama": "Mitos Asal-Usul & Ruwatan Telaga Warna",
        "ring_kategori": "Ring 2 - Terverifikasi Teks",
        "ring_level": 2,
        "kabupaten": "Kabupaten Wonosobo & Banjarnegara",
        "karesidenan": "Karesidenan Kedu",
        "zona_ekologi": "Ekologi Waduk, Rawa & Perairan Darat",
        "maestro": "",
        "formula_teks": "mitos putri sekartaji & cupu manik; mantra persembahan telaga; doa ruwat gembel",
        "ringkasan_ilmiah": "Kisah lisan terjadinya perubahan warna telaga vulkanik Dieng dan mantra persembahan air telaga yang dirapalkan pemangku adat saat jamasan sesaji ruwatan anak berambut gembel.",
        "sumber_ilmiah": "Prabowo & Wardani (2021). Mitologi Air Telaga Warna Dieng sebagai Bentuk Ekokritik Sastra Lisan. Seloka: Jurnal Sastra 10(2)",
        "youtube_url": ""
      }
    },
    {
      "type": "Feature",
      "id": "SLJT-R3-001",
      "geometry": {
        "type": "Point",
        "coordinates": [
          110.405648,
          -6.96303
        ]
      },
      "properties": {
        "id": "SLJT-R3-001",
        "nama": "Arak-Arakan Sam Poo Tay Djien",
        "ring_kategori": "Ring 3 - Perlu Verifikasi",
        "ring_level": 3,
        "kabupaten": "Kota Semarang",
        "karesidenan": "Karesidenan Semarang",
        "zona_ekologi": "Pesisir Pantura & Kawasan Pecinan",
        "maestro": "",
        "formula_teks": "arak-arakan/ritual, teks belum ditranskripsi",
        "ringkasan_ilmiah": "Sumber yang ditemukan membahas arak-arakan, ritual dan pertunjukan pendukung, tetapi belum memberikan transkripsi teks, mantra, tembang, dialog, atau kisahan yang dapat diuji.",
        "sumber_ilmiah": "Widodo (2019). Ritual Sam Poo Tay Djien: Harmoni Multikultural Pesisir Semarang. Sabda 14(1)",
        "youtube_url": ""
      }
    },
    {
      "type": "Feature",
      "id": "SLJT-R3-002",
      "geometry": {
        "type": "Point",
        "coordinates": [
          110.810614,
          -7.612681
        ]
      },
      "properties": {
        "id": "SLJT-R3-002",
        "nama": "Bambangan Cakil Surakarta",
        "ring_kategori": "Ring 3 - Perlu Verifikasi",
        "ring_level": 3,
        "kabupaten": "Kota Surakarta",
        "karesidenan": "Karesidenan Surakarta",
        "zona_ekologi": "Pusat Kebudayaan Mataram Surakarta",
        "maestro": "",
        "formula_teks": "dialog/seruan belum dibuktikan pada sumber yang ditelaah",
        "ringkasan_ilmiah": "Artikel membahas gerak, simbol dan interaksi penari Bambangan Cakil. Teks pertunjukan yang spesifik untuk bentuk Surakarta belum ditranskripsi.",
        "sumber_ilmiah": "Anom Sutejo & Sestri Indah Pebrianti (2025). Symbolic Interaction of Bambangan Cakil Dancers at Weddings in Rembang Regency. Acintya 16(2)",
        "youtube_url": ""
      }
    },
    {
      "type": "Feature",
      "id": "SLJT-R3-003",
      "geometry": {
        "type": "Point",
        "coordinates": [
          110.688202,
          -6.577721
        ]
      },
      "properties": {
        "id": "SLJT-R3-003",
        "nama": "Barikan Karimunjawa",
        "ring_kategori": "Ring 3 - Perlu Verifikasi",
        "ring_level": 3,
        "kabupaten": "Kabupaten Jepara",
        "karesidenan": "Karesidenan Pati (Muria Raya)",
        "zona_ekologi": "Pesisir Kepulauan Laut Jawa",
        "maestro": "",
        "formula_teks": "doa/ungkapan syukur disebut, teks belum ditranskripsi",
        "ringkasan_ilmiah": "Artikel ilmiah menyebut Barikan Qubra sebagai upacara syukur dan harapan keselamatan yang kini dikemas sebagai arak-arakan pertunjukan. Namun teks doa/ujaran tidak ditranskripsi, sehingga belum cukup untuk menyatakan ada karya sastra lisan.",
        "sumber_ilmiah": "Surojo & Iqbal Satrio Wicaksono (2019). Peranan Seni Pertunjukan Barikan Qubro dalam Mendukung Pariwisata Kepulauan Karimunjawa Kabupaten Jepara Jawa Tengah. Joged 10(1)",
        "youtube_url": ""
      }
    },
    {
      "type": "Feature",
      "id": "SLJT-R3-004",
      "geometry": {
        "type": "Point",
        "coordinates": [
          111.390503,
          -7.009181
        ]
      },
      "properties": {
        "id": "SLJT-R3-004",
        "nama": "Barongan Blora",
        "ring_kategori": "Ring 3 - Perlu Verifikasi",
        "ring_level": 3,
        "kabupaten": "Kabupaten Blora",
        "karesidenan": "Karesidenan Pati (Muria Raya)",
        "zona_ekologi": "Karst Kendeng & Hutan Jati Rimba",
        "maestro": "",
        "formula_teks": "pertunjukan barong, teks belum dibuktikan",
        "ringkasan_ilmiah": "Artikel membahas pelestarian, gender, visualisasi topeng dan pertunjukan Barongan Blora, tetapi bukti tekstual/ujaran yang tampil dalam pertunjukan belum ditunjukkan.",
        "sumber_ilmiah": "Agus Cahyono dkk. (2023). Reinterpretation of Gender Concept and Its Influence on Preservation of Barong Show Performance in Blora. Harmonia 23(2)",
        "youtube_url": ""
      }
    },
    {
      "type": "Feature",
      "id": "SLJT-R3-005",
      "geometry": {
        "type": "Point",
        "coordinates": [
          110.844768,
          -7.599
        ]
      },
      "properties": {
        "id": "SLJT-R3-005",
        "nama": "Bedhaya Bedhah Madiun",
        "ring_kategori": "Ring 3 - Perlu Verifikasi",
        "ring_level": 3,
        "kabupaten": "Kota Surakarta",
        "karesidenan": "Karesidenan Surakarta",
        "zona_ekologi": "Pusat Karaton Kasunanan Surakarta",
        "maestro": "",
        "formula_teks": "tari bedhaya, teks vokal belum dibuktikan",
        "ringkasan_ilmiah": "Artikel membahas konteks historis-politis Bedhaya Bedhah Madiun di Karaton Kasunanan Surakarta. Teks sindhenan/tembang belum ditranskripsikan dalam telaah ringkas.",
        "sumber_ilmiah": "Suparno (2020). Bedhaya Bedhah Madiun: Tari Pusaka Legitimasi Politik Jawa. Panggung 30(2)",
        "youtube_url": ""
      }
    },
    {
      "type": "Feature",
      "id": "SLJT-R3-006",
      "geometry": {
        "type": "Point",
        "coordinates": [
          110.14666,
          -7.105488
        ]
      },
      "properties": {
        "id": "SLJT-R3-006",
        "nama": "Gambyong Pareanom",
        "ring_kategori": "Ring 3 - Perlu Verifikasi",
        "ring_level": 3,
        "kabupaten": "Jawa Tengah (Pusat Surakarta)",
        "karesidenan": "Karesidenan Surakarta",
        "zona_ekologi": "Pusat Puro Mangkunegaran",
        "maestro": "",
        "formula_teks": "tari penyambutan, teks vokal belum dianalisis",
        "ringkasan_ilmiah": "Kajian tari Gambyong Pareanom berfokus pada teknik gerak, kostum, dan estetik pementasan; unsur sastra vokal (cakepan gendhing pengiring) belum dikaji secara khusus sebagai teks sastra lisan.",
        "sumber_ilmiah": "Endang Caturwati (2018). Karakteristik Koreografi Tari Gambyong di Mangkunegaran. Dewa Ruci 13(1)",
        "youtube_url": ""
      }
    },
    {
      "type": "Feature",
      "id": "SLJT-R3-007",
      "geometry": {
        "type": "Point",
        "coordinates": [
          110.128262,
          -7.159453
        ]
      },
      "properties": {
        "id": "SLJT-R3-007",
        "nama": "Gambyong Retno Kusumo",
        "ring_kategori": "Ring 3 - Perlu Verifikasi",
        "ring_level": 3,
        "kabupaten": "Jawa Tengah (Pusat Surakarta)",
        "karesidenan": "Karesidenan Surakarta",
        "zona_ekologi": "Pusat Puro Mangkunegaran",
        "maestro": "",
        "formula_teks": "tari klasik, teks vokal belum dibuktikan",
        "ringkasan_ilmiah": "Karya ilmiah membahas rekonstruksi gerak dan busana Tari Gambyong Retno Kusumo ciptaan BRAy Retno Nooryani, namun teks tembang vokal belum dianalisis secara tekstual.",
        "sumber_ilmiah": "Sri Hastuti (2019). Kontinuitas dan Perubahan Tari Gambyong Retno Kusumo. Gelar 17(1)",
        "youtube_url": ""
      }
    },
    {
      "type": "Feature",
      "id": "SLJT-R3-008",
      "geometry": {
        "type": "Point",
        "coordinates": [
          110.850175,
          -7.571495
        ]
      },
      "properties": {
        "id": "SLJT-R3-008",
        "nama": "Gamelan Jawa Gaya Surakarta",
        "ring_kategori": "Ring 3 - Perlu Verifikasi",
        "ring_level": 3,
        "kabupaten": "Kota Surakarta",
        "karesidenan": "Karesidenan Surakarta",
        "zona_ekologi": "Pusat Karaton Kasunanan Surakarta",
        "maestro": "",
        "formula_teks": "seni musik instrumental, teks vokal belum dipilah",
        "ringkasan_ilmiah": "Gamelan adalah seni instrumental musikal; teks sindhenan dan gerongan yang menyertai komposisi gamelan perlu dipilah secara spesifik per gendhing agar memenuhi kriteria sastra lisan.",
        "sumber_ilmiah": "Rahayu Supanggah (2017). Bothekan Karawitan II: Garap. ISI Press Surakarta",
        "youtube_url": ""
      }
    },
    {
      "type": "Feature",
      "id": "SLJT-R3-009",
      "geometry": {
        "type": "Point",
        "coordinates": [
          110.130454,
          -7.249857
        ]
      },
      "properties": {
        "id": "SLJT-R3-009",
        "nama": "Jaranan Margowati",
        "ring_kategori": "Ring 3 - Perlu Verifikasi",
        "ring_level": 3,
        "kabupaten": "Kabupaten Temanggung",
        "karesidenan": "Karesidenan Kedu",
        "zona_ekologi": "Lereng Gunung Sindoro-Sumbing",
        "maestro": "",
        "formula_teks": "kesenian kuda kepang, mantra belum ditranskripsi",
        "ringkasan_ilmiah": "Kajian tentang Jaranan Margowati di Temanggung berfokus pada pola interaksi komunal dan atraksi tari; teks mantra pemanggilan roh penari belum didokumentasikan dalam naskah ilmiah terbuka.",
        "sumber_ilmiah": "Wibowo (2021). Nilai Komunal Kesenian Jaranan Margowati Temanggung. Sabda 16(1)",
        "youtube_url": ""
      }
    },
    {
      "type": "Feature",
      "id": "SLJT-R3-010",
      "geometry": {
        "type": "Point",
        "coordinates": [
          110.676255,
          -6.629983
        ]
      },
      "properties": {
        "id": "SLJT-R3-010",
        "nama": "Jembul Tulakan",
        "ring_kategori": "Ring 3 - Perlu Verifikasi",
        "ring_level": 3,
        "kabupaten": "Kabupaten Jepara",
        "karesidenan": "Karesidenan Pati (Muria Raya)",
        "zona_ekologi": "Lereng Utara Gunung Muria",
        "maestro": "",
        "formula_teks": "upacara sedekah bumi, doa tutur belum ditranskripsi",
        "ringkasan_ilmiah": "Upacara adat penghormatan kepada Ratu Kalinyamat di Desa Tulakan Donorojo; kajian antropologis menyebut adanya ujaran permohonan berkah, namun transkripsi teks sastra tutur belum dipublikasikan utuh.",
        "sumber_ilmiah": "Siswanto (2020). Tradisi Upacara Jembul Tulakan Jepara dalam Perspektif Teori Solidaritas. Endogami 4(1)",
        "youtube_url": ""
      }
    },
    {
      "type": "Feature",
      "id": "SLJT-R3-011",
      "geometry": {
        "type": "Point",
        "coordinates": [
          110.024912,
          -7.703663
        ]
      },
      "properties": {
        "id": "SLJT-R3-011",
        "nama": "Jolenan Somongari",
        "ring_kategori": "Ring 3 - Perlu Verifikasi",
        "ring_level": 3,
        "kabupaten": "Kabupaten Purworejo",
        "karesidenan": "Karesidenan Kedu",
        "zona_ekologi": "Perbukitan Menoreh & Lembah Bogowonto",
        "maestro": "",
        "formula_teks": "upacara merti desa, tuturan sejarah lisan belum utuh",
        "ringkasan_ilmiah": "Tradisi arak-arakan jolenan (gunungan) dua tahunan di Somongari Kaligesing untuk mengenang Eyang Kedono Kedini; memuat cerita lisan sejarah lokal yang perlu ditranskripsi secara etnosastra.",
        "sumber_ilmiah": "Pramudito (2021). Nilai Kearifan Lokal Upacara Adat Jolenan Somongari Purworejo. Jurnal Sejarah dan Budaya 15(2)",
        "youtube_url": ""
      }
    },
    {
      "type": "Feature",
      "id": "SLJT-R3-012",
      "geometry": {
        "type": "Point",
        "coordinates": [
          110.809941,
          -7.677875
        ]
      },
      "properties": {
        "id": "SLJT-R3-012",
        "nama": "Kebo Kinul",
        "ring_kategori": "Ring 3 - Perlu Verifikasi",
        "ring_level": 3,
        "kabupaten": "Kabupaten Sukoharjo",
        "karesidenan": "Karesidenan Surakarta",
        "zona_ekologi": "Lembah DAS Bengawan Solo",
        "maestro": "",
        "formula_teks": "kesenian agraris, dialog tutur belum ditranskripsi",
        "ringkasan_ilmiah": "Tradisi seni pertunjukan agraris warga Sukoharjo yang menggambarkan penanggulangan hama tanaman padi; memuat dialog simbolik petani yang perlu diverifikasi ada/tidaknya formula teks sastra lisan baku.",
        "sumber_ilmiah": "Sutiyono (2020). Simbolisme Ritual Kebo Kinul dalam Ketahanan Pangan Masyarakat Sukoharjo. Acintya 12(2)",
        "youtube_url": ""
      }
    },
    {
      "type": "Feature",
      "id": "SLJT-R3-013",
      "geometry": {
        "type": "Point",
        "coordinates": [
          110.953622,
          -7.845517
        ]
      },
      "properties": {
        "id": "SLJT-R3-013",
        "nama": "Kethek Ogleng Wonogiri",
        "ring_kategori": "Ring 3 - Perlu Verifikasi",
        "ring_level": 3,
        "kabupaten": "Kabupaten Wonogiri",
        "karesidenan": "Karesidenan Surakarta",
        "zona_ekologi": "Pegunungan Karst Gajah Mungkur",
        "maestro": "",
        "formula_teks": "seni tari akrobatik kera, teks vokal belum dibuktikan",
        "ringkasan_ilmiah": "Kesenian tari menirukan gerak kera ciptaan Ki Oetomo di Wonogiri; kajian menekankan pada aspek koreografi dan mitos Panji, namun narasi lisan dalang/pengiring belum terdokumentasi dalam transkripsi baku.",
        "sumber_ilmiah": "Yuliatun (2019). Dinamika Pertunjukan Kethek Ogleng di Kabupaten Wonogiri. Jurnal Seni Tari 8(1)",
        "youtube_url": ""
      }
    },
    {
      "type": "Feature",
      "id": "SLJT-R3-014",
      "geometry": {
        "type": "Point",
        "coordinates": [
          110.915851,
          -7.780922
        ]
      },
      "properties": {
        "id": "SLJT-R3-014",
        "nama": "Labuhan Ageng Pantai Sembukan",
        "ring_kategori": "Ring 3 - Perlu Verifikasi",
        "ring_level": 3,
        "kabupaten": "Kabupaten Wonogiri",
        "karesidenan": "Karesidenan Surakarta",
        "zona_ekologi": "Pesisir Kidul Samudra Hindia",
        "maestro": "",
        "formula_teks": "ritual larung sesaji laut, teks doa belum ditranskripsi",
        "ringkasan_ilmiah": "Ritus persembahan sesaji abdi dalem Karaton Surakarta di Pantai Sembukan Paranggupito; terdapat pembacaan doa wilujengan laut selatan yang perlu ditranskripsikan teks ujaran dan mantranya.",
        "sumber_ilmiah": "Damayanti (2022). Nilai Spiritual Tradisi Labuhan Ageng di Pantai Sembukan Wonogiri. Jurnal Khasanah Ilmu 13(1)",
        "youtube_url": ""
      }
    },
    {
      "type": "Feature",
      "id": "SLJT-R3-015",
      "geometry": {
        "type": "Point",
        "coordinates": [
          110.817236,
          -7.582875
        ]
      },
      "properties": {
        "id": "SLJT-R3-015",
        "nama": "Larung Langse Keraton Surakarta",
        "ring_kategori": "Ring 3 - Perlu Verifikasi",
        "ring_level": 3,
        "kabupaten": "Kota Surakarta",
        "karesidenan": "Karesidenan Surakarta",
        "zona_ekologi": "Pesisir Pantai Parangkusumo & Karaton",
        "maestro": "",
        "formula_teks": "upacara pelarungan kelambu makam, ujaran belum dibuktikan",
        "ringkasan_ilmiah": "Ritual pelarungan potongan kelambu (langse) penutup makam raja-raja Imogiri ke Samudra Hindia; memuat tata upacara sakral yang memerlukan verifikasi ada/tidaknya teks sastra lisan khusus.",
        "sumber_ilmiah": "Sudarmono (2021). Makna Simbolik Upacara Larung Langse Kasunanan Surakarta. Patrawidya 22(1)",
        "youtube_url": ""
      }
    },
    {
      "type": "Feature",
      "id": "SLJT-R3-016",
      "geometry": {
        "type": "Point",
        "coordinates": [
          111.059121,
          -6.747843
        ]
      },
      "properties": {
        "id": "SLJT-R3-016",
        "nama": "Meron Pati",
        "ring_kategori": "Ring 3 - Perlu Verifikasi",
        "ring_level": 3,
        "kabupaten": "Kabupaten Pati",
        "karesidenan": "Karesidenan Pati (Muria Raya)",
        "zona_ekologi": "Lereng Gunung Muria & Pesisir Sukolilo",
        "maestro": "",
        "formula_teks": "upacara maulid nabi, kidung belum ditranskripsi",
        "ringkasan_ilmiah": "Upacara adat arak-arakan gunungan meron di Sukolilo Pati saat Maulid Nabi; artikel ilmiah mencatat adanya pembacaan shalawat dan kidung Jawa, namun transkripsi teks belum diverifikasi tuntas.",
        "sumber_ilmiah": "Kurniawati (2020). Tradisi Upacara Adat Meron Sukolilo Pati: Perspektif Nilai Karakter. Sabda 15(2)",
        "youtube_url": ""
      }
    },
    {
      "type": "Feature",
      "id": "SLJT-R3-017",
      "geometry": {
        "type": "Point",
        "coordinates": [
          110.923224,
          -7.589736
        ]
      },
      "properties": {
        "id": "SLJT-R3-017",
        "nama": "Mondhosio Pancot",
        "ring_kategori": "Ring 3 - Perlu Verifikasi",
        "ring_level": 3,
        "kabupaten": "Kabupaten Karanganyar",
        "karesidenan": "Karesidenan Surakarta",
        "zona_ekologi": "Lereng Barat Gunung Lawu",
        "maestro": "",
        "formula_teks": "upacara bersih dusun, teks doa belum ditranskripsi",
        "ringkasan_ilmiah": "Upacara adat tujuh bulanan (Wuku Mondhosio) di lereng Gunung Lawu dengan tradisi pelemparan ayam ke atap balai dusun; memuat cerita lisan Prabu Baka yang perlu dicatat transkripsinya.",
        "sumber_ilmiah": "Wahyuningtyas (2021). Nilai Sosial dan Mitos Prabu Baka dalam Tradisi Mondhosio Pancot. Seloka 10(1)",
        "youtube_url": ""
      }
    },
    {
      "type": "Feature",
      "id": "SLJT-R3-018",
      "geometry": {
        "type": "Point",
        "coordinates": [
          108.961729,
          -7.056825
        ]
      },
      "properties": {
        "id": "SLJT-R3-018",
        "nama": "Ngasa Kabupaten Brebes",
        "ring_kategori": "Ring 3 - Perlu Verifikasi",
        "ring_level": 3,
        "kabupaten": "Kabupaten Brebes",
        "karesidenan": "Karesidenan Pekalongan",
        "zona_ekologi": "Dataran Tinggi Jalawastu (Sunda Brebes)",
        "maestro": "",
        "formula_teks": "upacara adat sunda-jawa, ujaran adat belum ditranskripsi",
        "ringkasan_ilmiah": "Ritus tahunan masyarakat adat Dusun Jalawastu Ciseureuh Brebes berupa penyajian jagung dan doa kepada Batara Windu Buana; memuat tuturan adat Sunda-Brebes yang mendesak untuk ditranskripsi di lapangan.",
        "sumber_ilmiah": "Kusumawati (2020). Kearifan Lokal Masyarakat Adat Kampung Jalawastu Brebes pada Upacara Ngasa. Jurnal Lingua 16(2)",
        "youtube_url": ""
      }
    },
    {
      "type": "Feature",
      "id": "SLJT-R3-019",
      "geometry": {
        "type": "Point",
        "coordinates": [
          109.630377,
          -7.040981
        ]
      },
      "properties": {
        "id": "SLJT-R3-019",
        "nama": "Nyadran Gunung Silurah",
        "ring_kategori": "Ring 3 - Perlu Verifikasi",
        "ring_level": 3,
        "kabupaten": "Kabupaten Pekalongan",
        "karesidenan": "Karesidenan Pekalongan",
        "zona_ekologi": "Dataran Tinggi Rogojembangan",
        "maestro": "",
        "formula_teks": "ritual agraris pegunungan, mantra belum ditranskripsi",
        "ringkasan_ilmiah": "Upacara potong kambing kendit dan slametan sumber air di Desa Silurah Wonokerto; memuat doa mantra tolak bala sesepuh gunung yang belum terdokumentasi naskah verbalnya.",
        "sumber_ilmiah": "Hidayat (2021). Tradisi Nyadran Gunung Desa Silurah Kabupaten Pekalongan: Kajian Ekologi Budaya. Nusa 16(2)",
        "youtube_url": ""
      }
    },
    {
      "type": "Feature",
      "id": "SLJT-R3-020",
      "geometry": {
        "type": "Point",
        "coordinates": [
          111.322502,
          -6.78622
        ]
      },
      "properties": {
        "id": "SLJT-R3-020",
        "nama": "Penjamasan Pusaka Sunan Bonang",
        "ring_kategori": "Ring 3 - Perlu Verifikasi",
        "ring_level": 3,
        "kabupaten": "Kabupaten Rembang",
        "karesidenan": "Karesidenan Pati (Muria Raya)",
        "zona_ekologi": "Pesisir Pantura Lasem & Bonang",
        "maestro": "",
        "formula_teks": "ritual jamasan pusaka bende becak, teks belum ditranskripsi",
        "ringkasan_ilmiah": "Pencucian bende becak peninggalan Sunan Bonang di Desa Bonang Lasem setiap 10 Dzulhijjah; terdapat tuturan sejarah lisan dan doa wilujengan yang memerlukan perekaman langsung.",
        "sumber_ilmiah": "Subekti (2020). Tradisi Penjamasan Bende Becak di Desa Bonang Rembang. Jurnal Penelitian Humaniora 21(2)",
        "youtube_url": ""
      }
    },
    {
      "type": "Feature",
      "id": "SLJT-R3-021",
      "geometry": {
        "type": "Point",
        "coordinates": [
          110.708897,
          -6.594544
        ]
      },
      "properties": {
        "id": "SLJT-R3-021",
        "nama": "Perang Obor Tegalsambi",
        "ring_kategori": "Ring 3 - Perlu Verifikasi",
        "ring_level": 3,
        "kabupaten": "Kabupaten Jepara",
        "karesidenan": "Karesidenan Pati (Muria Raya)",
        "zona_ekologi": "Pesisir Pantura Tegalsambi",
        "maestro": "",
        "formula_teks": "atraksi pertunjukan api, mitos belum ditranskripsi utuh",
        "ringkasan_ilmiah": "Upacara penolak bala di Desa Tegalsambi dengan saling memukulkan obor pelepah kelapa; mitos Ki Babadan dan Ki Gemblong melandasi tradisi ini namun teks tuturan lisan belum dianalisis secara filologis.",
        "sumber_ilmiah": "Ali Imron (2019). Rekonstruksi Mitos Ki Babadan dalam Tradisi Perang Obor Tegalsambi Jepara. Sabda 14(1)",
        "youtube_url": ""
      }
    },
    {
      "type": "Feature",
      "id": "SLJT-R3-022",
      "geometry": {
        "type": "Point",
        "coordinates": [
          110.651208,
          -6.546707
        ]
      },
      "properties": {
        "id": "SLJT-R3-022",
        "nama": "Pesta Lomban",
        "ring_kategori": "Ring 3 - Perlu Verifikasi",
        "ring_level": 3,
        "kabupaten": "Kabupaten Jepara",
        "karesidenan": "Karesidenan Pati (Muria Raya)",
        "zona_ekologi": "Pesisir Laut Teluk Jepara",
        "maestro": "",
        "formula_teks": "pesta sedekah laut kupatan, doa belum ditranskripsi",
        "ringkasan_ilmiah": "Pesta laut pelarungan kepala kerbau seminggu setelah Idulfitri di Teluk Jepara; artikel ilmiah membahas keramaian dan ekonomi pariwisata, belum mendokumentasikan doa mantra juru kunci laut.",
        "sumber_ilmiah": "Puji Lestari (2020). Transformasi Budaya Pesta Lomban di Pantai Kartini Jepara. Jurnal Pariwisata Terapan 4(1)",
        "youtube_url": ""
      }
    },
    {
      "type": "Feature",
      "id": "SLJT-R3-023",
      "geometry": {
        "type": "Point",
        "coordinates": [
          110.137165,
          -7.164734
        ]
      },
      "properties": {
        "id": "SLJT-R3-023",
        "nama": "Ruwatan Rambut Gimbal Dieng",
        "ring_kategori": "Ring 3 - Perlu Verifikasi",
        "ring_level": 3,
        "kabupaten": "Kab. Banjarnegara & Wonosobo",
        "karesidenan": "Karesidenan Kedu & Banyumas",
        "zona_ekologi": "Dataran Tinggi Vulkanik Dieng",
        "maestro": "",
        "formula_teks": "upacara pencukuran anak gembel, mantra belum ditranskripsi",
        "ringkasan_ilmiah": "Ritus pemotongan rambut gimbal titipan Kyai Kolodete di Dataran Tinggi Dieng; memuat ujaran permintaan anak gembel dan rapalan doa pemangku adat yang perlu ditranskripsi secara verbatim.",
        "sumber_ilmiah": "Dwi Wahyuni (2020). Mitos Kyai Kolodete dan Eksistensi Anak Rambut Gimbal di Dataran Tinggi Dieng. Jurnal Sastra Indonesia 9(2)",
        "youtube_url": ""
      }
    },
    {
      "type": "Feature",
      "id": "SLJT-R3-024",
      "geometry": {
        "type": "Point",
        "coordinates": [
          110.625219,
          -7.510059
        ]
      },
      "properties": {
        "id": "SLJT-R3-024",
        "nama": "Saparan Sebaran Apem Keong Mas",
        "ring_kategori": "Ring 3 - Perlu Verifikasi",
        "ring_level": 3,
        "kabupaten": "Kabupaten Boyolali",
        "karesidenan": "Karesidenan Surakarta",
        "zona_ekologi": "Lembah Pengging & Kaki Merbabu",
        "maestro": "",
        "formula_teks": "upacara sebaran kue, tuturan sejarah belum ditranskripsi",
        "ringkasan_ilmiah": "Ritus tahunan di Pengging Banyudono mengenang legenda Kyai Ageng Pantaran dan Ki Ageng Pengging; cerita lisan dan doa sebaran apem kukus belum dibukukan secara etnosastra.",
        "sumber_ilmiah": "Wardani (2021). Kajian Folklor Tradisi Sebaran Apem Keong Mas di Pengging Boyolali. Jurnal Sutasoma 9(1)",
        "youtube_url": ""
      }
    },
    {
      "type": "Feature",
      "id": "SLJT-R3-025",
      "geometry": {
        "type": "Point",
        "coordinates": [
          109.649887,
          -7.381468
        ]
      },
      "properties": {
        "id": "SLJT-R3-025",
        "nama": "Sedekah Hasil Bumi Jlarang",
        "ring_kategori": "Ring 3 - Perlu Verifikasi",
        "ring_level": 3,
        "kabupaten": "Kabupaten Banjarnegara",
        "karesidenan": "Karesidenan Banyumas",
        "zona_ekologi": "Dataran Tinggi Hulu DAS Serayu",
        "maestro": "",
        "formula_teks": "upacara panen, mantra belum dibuktikan",
        "ringkasan_ilmiah": "Upacara syukur hasil pertanian masyarakat Desa Jlarang Banjarnegara; perlu investigasi lapangan untuk memastikan ada/tidaknya teks doa berbahasa Jawa kuno dalam prosesi.",
        "sumber_ilmiah": "Santosa (2020). Tradisi Sedekah Bumi Masyarakat Agraris Desa Jlarang Banjarnegara. Jurnal Pendidikan Geografi 17(2)",
        "youtube_url": ""
      }
    },
    {
      "type": "Feature",
      "id": "SLJT-R3-026",
      "geometry": {
        "type": "Point",
        "coordinates": [
          111.445171,
          -7.04859
        ]
      },
      "properties": {
        "id": "SLJT-R3-026",
        "nama": "Sedulur Sikep Blora",
        "ring_kategori": "Ring 3 - Perlu Verifikasi",
        "ring_level": 3,
        "kabupaten": "Kabupaten Blora",
        "karesidenan": "Karesidenan Pati (Muria Raya)",
        "zona_ekologi": "Pegunungan Kendeng & Hutan Jati",
        "maestro": "",
        "formula_teks": "ajaran gugon tuhon samin, teks tuturan lisan belum dihimpun",
        "ringkasan_ilmiah": "Komunitas penganut ajaran Samin Surosentiko di Klopoduwur Blora; memiliki ajaran lisan 'angkat piring' dan falsafah hidup bertutur lugas yang perlu dihimpun dalam korpus teks sastra lisan.",
        "sumber_ilmiah": "Amrih Widodo (2019). Saminisme dan Tradisi Tutur Perlawanan Petani Hutan Jati Jawa Tengah. Jurnal Kajian Wilayah 10(2)",
        "youtube_url": ""
      }
    },
    {
      "type": "Feature",
      "id": "SLJT-R3-027",
      "geometry": {
        "type": "Point",
        "coordinates": [
          110.825205,
          -7.555001
        ]
      },
      "properties": {
        "id": "SLJT-R3-027",
        "nama": "Sekaten Surakarta",
        "ring_kategori": "Ring 3 - Perlu Verifikasi",
        "ring_level": 3,
        "kabupaten": "Kota Surakarta",
        "karesidenan": "Karesidenan Surakarta",
        "zona_ekologi": "Alun-Alun Karaton Surakarta Hadiningrat",
        "maestro": "",
        "formula_teks": "upacara maulid nabi, gendhing kemanak belum dipilah teksnya",
        "ringkasan_ilmiah": "Peringatan Maulud Nabi Muhammad SAW dengan pembunyian gamelan pusaka Kyai Gunturmadu dan Kyai Guntursari; khotbah dan ujaran wilujengan kraton perlu diverifikasi aspek sastra lisannya.",
        "sumber_ilmiah": "Sunardi (2018). Musikalitas dan Spiritualitas Gamelan Sekaten Karaton Surakarta. Keteg 18(1)",
        "youtube_url": ""
      }
    },
    {
      "type": "Feature",
      "id": "SLJT-R3-028",
      "geometry": {
        "type": "Point",
        "coordinates": [
          110.807714,
          -7.588204
        ]
      },
      "properties": {
        "id": "SLJT-R3-028",
        "nama": "Srimpi Ludiramadu",
        "ring_kategori": "Ring 3 - Perlu Verifikasi",
        "ring_level": 3,
        "kabupaten": "Kota Surakarta",
        "karesidenan": "Karesidenan Surakarta",
        "zona_ekologi": "Pusat Puro Mangkunegaran",
        "maestro": "",
        "formula_teks": "tari istana, teks tembang belum ditranskripsi",
        "ringkasan_ilmiah": "Tari srimpi ciptaan KGPAA Mangkunagoro IV; artikel mengulas sejarah dukacita atas wafatnya putra mahkota, namun teks tembang vokal pelengkap tari belum dianalisis secara mandiri.",
        "sumber_ilmiah": "Soedarsono (2018). Srimpi Ludiramadu: Ekspresi Duka Cita Penguasa Jawa dalam Karya Seni Tari. Panggung 28(3)",
        "youtube_url": ""
      }
    },
    {
      "type": "Feature",
      "id": "SLJT-R3-029",
      "geometry": {
        "type": "Point",
        "coordinates": [
          110.860211,
          -7.567412
        ]
      },
      "properties": {
        "id": "SLJT-R3-029",
        "nama": "Srimpi Mondrorini",
        "ring_kategori": "Ring 3 - Perlu Verifikasi",
        "ring_level": 3,
        "kabupaten": "Kota Surakarta",
        "karesidenan": "Karesidenan Surakarta",
        "zona_ekologi": "Pusat Karaton Kasunanan Surakarta",
        "maestro": "",
        "formula_teks": "tari bedhaya-srimpi, teks sindhenan belum ditelaah",
        "ringkasan_ilmiah": "Karya tari klasik putri Karaton Surakarta yang diiringi gendhing berlaras pelog barang; teks vokal sindhenan perlu diuji apakah memiliki nilai sastra puitik yang utuh.",
        "sumber_ilmiah": "Theresia (2020). Nilai Estetis dan Garap Gerak Tari Srimpi Mondrorini. Resital 21(2)",
        "youtube_url": ""
      }
    },
    {
      "type": "Feature",
      "id": "SLJT-R3-030",
      "geometry": {
        "type": "Point",
        "coordinates": [
          110.789351,
          -7.54214
        ]
      },
      "properties": {
        "id": "SLJT-R3-030",
        "nama": "Srimpi Muncar",
        "ring_kategori": "Ring 3 - Perlu Verifikasi",
        "ring_level": 3,
        "kabupaten": "Kota Surakarta",
        "karesidenan": "Karesidenan Surakarta",
        "zona_ekologi": "Pusat Karaton Kasunanan Surakarta",
        "maestro": "",
        "formula_teks": "tari klasik ksatria putri, teks belum dibuktikan",
        "ringkasan_ilmiah": "Tari srimpi gaya Surakarta berlakon perseteruan Dewi Menakjingga dan Ratu Ayu Kencana Wungu; teks pocapan antawecana tari belum dipublikasikan dalam sumber kajian.",
        "sumber_ilmiah": "Kusumastuti (2021). Koreografi dan Simbol Busana Tari Srimpi Muncar Surakarta. Mudra 36(1)",
        "youtube_url": ""
      }
    },
    {
      "type": "Feature",
      "id": "SLJT-R3-031",
      "geometry": {
        "type": "Point",
        "coordinates": [
          110.827434,
          -7.584805
        ]
      },
      "properties": {
        "id": "SLJT-R3-031",
        "nama": "Srimpi Pandhelori",
        "ring_kategori": "Ring 3 - Perlu Verifikasi",
        "ring_level": 3,
        "kabupaten": "Kota Surakarta",
        "karesidenan": "Karesidenan Surakarta",
        "zona_ekologi": "Pusat Karaton Kasunanan Surakarta",
        "maestro": "",
        "formula_teks": "tari keraton, teks tembang belum ditranskripsi",
        "ringkasan_ilmiah": "Tarian klasik srimpi bertema peperangan halus; analisis tekstual atas teks tembang gendhing Pandhelori belum dilakukan oleh peneliti tari.",
        "sumber_ilmiah": "Darmawan (2019). Kajian Struktur Musikal Gendhing Pandhelori Pengiring Tari Srimpi. Dewa Ruci 14(2)",
        "youtube_url": ""
      }
    },
    {
      "type": "Feature",
      "id": "SLJT-R3-032",
      "geometry": {
        "type": "Point",
        "coordinates": [
          110.838823,
          -7.549089
        ]
      },
      "properties": {
        "id": "SLJT-R3-032",
        "nama": "Srimpi Sangupati",
        "ring_kategori": "Ring 3 - Perlu Verifikasi",
        "ring_level": 3,
        "kabupaten": "Kota Surakarta",
        "karesidenan": "Karesidenan Surakarta",
        "zona_ekologi": "Pusat Karaton Kasunanan Surakarta",
        "maestro": "",
        "formula_teks": "tari intrik diplomasi, teks belum ditranskripsi",
        "ringkasan_ilmiah": "Tari srimpi politis PB IX untuk menjamu dan memperdaya pejabat kolonial Belanda; narasi simbolik racun sangupati perlu diuji bukti transkripsi tembang vokal pengiringnya.",
        "sumber_ilmiah": "Rustopo (2020). Menari di Bawah Todongan Bedil: Makna Simbolik Tari Srimpi Sangupati. ISI Press Surakarta",
        "youtube_url": ""
      }
    },
    {
      "type": "Feature",
      "id": "SLJT-R3-033",
      "geometry": {
        "type": "Point",
        "coordinates": [
          110.180785,
          -7.543628
        ]
      },
      "properties": {
        "id": "SLJT-R3-033",
        "nama": "Suran Tutup Ngisor Kabupaten Magelang",
        "ring_kategori": "Ring 3 - Perlu Verifikasi",
        "ring_level": 3,
        "kabupaten": "Kabupaten Magelang",
        "karesidenan": "Karesidenan Kedu",
        "zona_ekologi": "Lereng Barat Gunung Merapi",
        "maestro": "",
        "formula_teks": "upacara suran seniman petani, tuturan doa belum dihimpun",
        "ringkasan_ilmiah": "Ritus perayaan malam 1 Suro oleh komunitas seniman petani Dusun Tutup Ngisor lereng Gunung Merapi; memuat doa keselamatan dan lakon wayang orang yang perlu dihimpun teks naskahnya.",
        "sumber_ilmiah": "Yustiono (2019). Estetika Komunitas Petani Seniman Padepokan Tutup Ngisor Magelang. Gelar 17(2)",
        "youtube_url": ""
      }
    },
    {
      "type": "Feature",
      "id": "SLJT-R3-034",
      "geometry": {
        "type": "Point",
        "coordinates": [
          109.284989,
          -7.476279
        ]
      },
      "properties": {
        "id": "SLJT-R3-034",
        "nama": "Talang Tawing",
        "ring_kategori": "Ring 3 - Perlu Verifikasi",
        "ring_level": 3,
        "kabupaten": "Kabupaten Banyumas",
        "karesidenan": "Karesidenan Banyumas",
        "zona_ekologi": "Lembah DAS Serayu Hulu",
        "maestro": "",
        "formula_teks": "tradisi lisan lokal, teks belum ditemukan dalam jurnal",
        "ringkasan_ilmiah": "Kesenian tutur tradisi khas Banyumasan; pustaka daring belum memberikan transkripsi verbatim naskah tuturan, diprioritaskan untuk pelacakan narasumber sanggar budaya.",
        "sumber_ilmiah": "Dinas Porabudpar Banyumas (2021). Inventarisasi Seni Budaya Tradisional Kabupaten Banyumas",
        "youtube_url": ""
      }
    },
    {
      "type": "Feature",
      "id": "SLJT-R3-035",
      "geometry": {
        "type": "Point",
        "coordinates": [
          109.660001,
          -7.640842
        ]
      },
      "properties": {
        "id": "SLJT-R3-035",
        "nama": "Tari Cepetan Alas",
        "ring_kategori": "Ring 3 - Perlu Verifikasi",
        "ring_level": 3,
        "kabupaten": "Kabupaten Kebumen",
        "karesidenan": "Karesidenan Kedu",
        "zona_ekologi": "Perbukitan Karst Karangkobar-Gombong",
        "maestro": "",
        "formula_teks": "tari topeng kayu liar, mantra pemanggil belum ditranskripsi",
        "ringkasan_ilmiah": "Seni tari rakyat di Karanggayam Kebumen mengenang perlawanan pejuang menyamar menjadi hantu hutan (cepetan); mantra pawang pengundang suasana mistis belum terdokumentasi naskah verbalnya.",
        "sumber_ilmiah": "Triyanto (2020). Nilai Perjuangan dan Estetika Seni Tari Cepetan Alas di Kebumen. Harmonia 20(1)",
        "youtube_url": ""
      }
    },
    {
      "type": "Feature",
      "id": "SLJT-R3-036",
      "geometry": {
        "type": "Point",
        "coordinates": [
          110.815063,
          -7.592978
        ]
      },
      "properties": {
        "id": "SLJT-R3-036",
        "nama": "Tari Gambyong",
        "ring_kategori": "Ring 3 - Perlu Verifikasi",
        "ring_level": 3,
        "kabupaten": "Kota Surakarta",
        "karesidenan": "Karesidenan Surakarta",
        "zona_ekologi": "Pusat Kebudayaan Mataram Surakarta",
        "maestro": "",
        "formula_teks": "tari rakyat ke keraton, teks parikan awal belum dipilah",
        "ringkasan_ilmiah": "Sejarah tledhek Gambyong yang diangkat ke keraton; teks parikan dan sindhenan tayub awal perlu dipilah dari koreografi tari murni.",
        "sumber_ilmiah": "RM Soedarsono (2019). Dari Tledhek ke Tari Istana: Transformasi Tari Gambyong. Jurnal Tari Jawa 5(2)",
        "youtube_url": ""
      }
    },
    {
      "type": "Feature",
      "id": "SLJT-R3-037",
      "geometry": {
        "type": "Point",
        "coordinates": [
          110.857179,
          -7.555595
        ]
      },
      "properties": {
        "id": "SLJT-R3-037",
        "nama": "Tari Srikandi Mustakaweni",
        "ring_kategori": "Ring 3 - Perlu Verifikasi",
        "ring_level": 3,
        "kabupaten": "Kota Surakarta",
        "karesidenan": "Karesidenan Surakarta",
        "zona_ekologi": "Pusat Karaton Kasunanan Surakarta",
        "maestro": "",
        "formula_teks": "tari pethilan wayang, dialog belum ditranskripsi",
        "ringkasan_ilmiah": "Fragmen tari perang tanding dua ksatria putri memperebutkan pusaka Jamus Kalimasada; memuat dialog antawecana yang perlu ditranskripsikan.",
        "sumber_ilmiah": "Pramono (2021). Dramaturgi Tari Pethilan Srikandi Mustakaweni. Panggung 31(1)",
        "youtube_url": ""
      }
    },
    {
      "type": "Feature",
      "id": "SLJT-R3-038",
      "geometry": {
        "type": "Point",
        "coordinates": [
          110.561877,
          -7.510954
        ]
      },
      "properties": {
        "id": "SLJT-R3-038",
        "nama": "Turonggo Seto Boyolali",
        "ring_kategori": "Ring 3 - Perlu Verifikasi",
        "ring_level": 3,
        "kabupaten": "Kabupaten Boyolali",
        "karesidenan": "Karesidenan Surakarta",
        "zona_ekologi": "Lereng Gunung Merapi-Merbabu (Selo)",
        "maestro": "",
        "formula_teks": "kuda kepang putih merapi, mantra pawang belum dibuktikan",
        "ringkasan_ilmiah": "Kesenian kuda kepang putih khas lereng Selo Boyolali; kajian berfokus pada dinamika kelompok seni, teks mantra pawang belum ditranskripsi.",
        "sumber_ilmiah": "Prasetyo (2022). Solidaritas Petani Lereng Merapi Melalui Kesenian Turonggo Seto. Sabda 17(2)",
        "youtube_url": ""
      }
    },
    {
      "type": "Feature",
      "id": "SLJT-R3-039",
      "geometry": {
        "type": "Point",
        "coordinates": [
          110.83241,
          -7.583078
        ]
      },
      "properties": {
        "id": "SLJT-R3-039",
        "nama": "Upacara Adat Adang Tahun Dal",
        "ring_kategori": "Ring 3 - Perlu Verifikasi",
        "ring_level": 3,
        "kabupaten": "Kota Surakarta",
        "karesidenan": "Karesidenan Surakarta",
        "zona_ekologi": "Pawon Gondorasan Karaton Surakarta",
        "maestro": "",
        "formula_teks": "ritual memasak nasi pusaka 8 tahunan, teks belum tuntas",
        "ringkasan_ilmiah": "Upacara memasak nasi tumpeng dalam dandang pusaka Kyai Dudo oleh Susuhunan Paku Buwono setiap 8 tahun sekali; doa khusus yang dirapalkan abdi dalem dapur belum dipublikasikan luas.",
        "sumber_ilmiah": "Suryono (2020). Ritual Adang Tahun Dal Karaton Kasunanan Surakarta: Tinjauan Simbolik. Patrawidya 21(3)",
        "youtube_url": ""
      }
    },
    {
      "type": "Feature",
      "id": "SLJT-R3-040",
      "geometry": {
        "type": "Point",
        "coordinates": [
          110.850737,
          -6.780658
        ]
      },
      "properties": {
        "id": "SLJT-R3-040",
        "nama": "Upacara Adat Dandangan Kudus",
        "ring_kategori": "Ring 3 - Perlu Verifikasi",
        "ring_level": 3,
        "kabupaten": "Kabupaten Kudus",
        "karesidenan": "Karesidenan Pati (Muria Raya)",
        "zona_ekologi": "Kawasan Menara Kudus & Kaki Muria",
        "maestro": "",
        "formula_teks": "penabuhan bedug sambut ramadhan, ujaran lisan belum dihimpun",
        "ringkasan_ilmiah": "Tradisi menanti pengumuman awal puasa Ramadhan oleh Sunan Kudus dengan pemukulan bedug Menara; memuat sejarah lisan yang perlu ditranskripsikan formulanya.",
        "sumber_ilmiah": "Zuhri (2021). Dandangan Menara Kudus: Tradisi, Ekonomi, dan Kearifan Living Islam. Jurnal Penelitian Agama 22(1)",
        "youtube_url": ""
      }
    },
    {
      "type": "Feature",
      "id": "SLJT-R3-041",
      "geometry": {
        "type": "Point",
        "coordinates": [
          110.795845,
          -7.589742
        ]
      },
      "properties": {
        "id": "SLJT-R3-041",
        "nama": "Wireng Gatutkaca Dadhungawuk",
        "ring_kategori": "Ring 3 - Perlu Verifikasi",
        "ring_level": 3,
        "kabupaten": "Kota Surakarta",
        "karesidenan": "Karesidenan Surakarta",
        "zona_ekologi": "Pusat Karaton Kasunanan Surakarta",
        "maestro": "",
        "formula_teks": "tari prajurit ksatria, teks suluk pengiring belum dipisah",
        "ringkasan_ilmiah": "Tari ksatria gaya Surakarta; teks suluk pedalangan yang hadir sebagai iringan perlu diuji keterkaitannya dengan sastra lisan mandiri.",
        "sumber_ilmiah": "Soetarno (2021). Estetika Tari Wireng Karaton Surakarta. Keteg 21(2)",
        "youtube_url": ""
      }
    },
    {
      "type": "Feature",
      "id": "SLJT-R3-042",
      "geometry": {
        "type": "Point",
        "coordinates": [
          110.184894,
          -7.156384
        ]
      },
      "properties": {
        "id": "SLJT-R3-042",
        "nama": "Sedekah Waduk & Memori Geger Kedung Ombo",
        "ring_kategori": "Ring 3 - Perlu Verifikasi",
        "ring_level": 3,
        "kabupaten": "Kab. Grobogan, Boyolali, Sragen",
        "karesidenan": "Karesidenan Surakarta & Pati",
        "zona_ekologi": "Ekologi Waduk, Rawa & Perairan Darat",
        "maestro": "",
        "formula_teks": "narasi memori traumatik bedhol desa; mitos siluman buaya putih; mantra sesaji nelayan keramba",
        "ringkasan_ilmiah": "Kisah lisan sejarah pemindahan warga 1980-an dan ritual larung sesaji waduk perlu verifikasi transkripsi rekaman tutur saksi mata dan formula ujaran pawang air di lapangan.",
        "sumber_ilmiah": "Supriyadi (2021). Dinamika Memori Kolektif Komunitas Terdampak Pembangunan Waduk Kedung Ombo. Jurnal Handep 5(1)",
        "youtube_url": ""
      }
    },
    {
      "type": "Feature",
      "id": "SLJT-R3-043",
      "geometry": {
        "type": "Point",
        "coordinates": [
          110.915399,
          -7.813401
        ]
      },
      "properties": {
        "id": "SLJT-R3-043",
        "nama": "Memori Bedhol Desa & Larung Sesaji Waduk Gajah Mungkur",
        "ring_kategori": "Ring 3 - Perlu Verifikasi",
        "ring_level": 3,
        "kabupaten": "Kabupaten Wonogiri",
        "karesidenan": "Karesidenan Surakarta",
        "zona_ekologi": "Ekologi Waduk, Rawa & Perairan Darat",
        "maestro": "",
        "formula_teks": "kisah bedhol kuring transmigrasi sitiung 1978; mitos makam nglaroh; mantra larung sesaji 1 sura",
        "ringkasan_ilmiah": "Memori tutur puluhan desa yang ditenggelamkan dan ritual perahu sesaji nelayan waduk; memerlukan transkripsi verbatim tuturan sesepuh untuk memastikan keterpenuhan unsur teks sastra lisan.",
        "sumber_ilmiah": "Hastuti & Subiyantoro (2023). Dampak Sosio-Kultural Pembangunan Waduk Gajah Mungkur terhadap Memori Budaya Komunitas. Mudra 38(2)",
        "youtube_url": ""
      }
    },
    {
      "type": "Feature",
      "id": "SLJT-R3-044",
      "geometry": {
        "type": "Point",
        "coordinates": [
          109.683619,
          -7.409962
        ]
      },
      "properties": {
        "id": "SLJT-R3-044",
        "nama": "Ritus Melempar Batu Sumur & Sendang Jalatunda",
        "ring_kategori": "Ring 3 - Perlu Verifikasi",
        "ring_level": 3,
        "kabupaten": "Kabupaten Banjarnegara & Wonosobo",
        "karesidenan": "Karesidenan Kedu & Banyumas",
        "zona_ekologi": "Ekologi Sendang & Mata Air Sakral",
        "maestro": "",
        "formula_teks": "mitos kawah siwi & pintu semar; ujaran permohonan hajat peziarah; legenda sumur purba",
        "ringkasan_ilmiah": "Tradisi melempar kerikil menyeberangi ceruk sumur raksasa Dieng dengan ujaran niat batin; perlu diverifikasi apakah ada formula mantra lisan khusus dari juru kunci situs.",
        "sumber_ilmiah": "Nugroho (2020). Makna Ritual Melempar Batu di Sumur Jalatunda Dataran Tinggi Dieng. Nusa: Jurnal Ilmu Bahasa dan Sastra 15(4)",
        "youtube_url": ""
      }
    }
  ]
}